{"type":"Feature","properties":{"kind":"study_window","official_municipal_boundary":false,"width_m":3000,"definition_crs":"EPSG:32643","projected_bounds":[471150,1473450,474150,1476450],"bounds_wgs84":[74.73357429922794,13.328235746052723,74.76130533224236,13.35539050290242],"anchor_osm_node_id":245620117,"anchor_lon_lat":[74.7473232,13.3419169],"anchor_version":29,"anchor_modified_at":"2026-04-23T11:18:45Z","retrieved_at":"2026-10-03T15:07:05.161096+00:00","boundary_diagnostic":"Small 3 km study window, centre snapped to 30 m UTM grid. Bounded OSM discovery returned a city point and district relation, not a verified municipal polygon. This window is not an official urban boundary.","district_containment_source":"WM/geoLab/geoBoundaries/600/ADM2","district_shape_id":"76128533B4839184447445","district_geometry_sha256":"4f977a68cce0c55ceedad9c2d30c2d774a79ba10243816d14069ea84ea4a43df"},"geometry":{"type":"Polygon","coordinates":[[[74.73360402384792,13.328235746052723],[74.73533535376141,13.328237557414603],[74.73706668393089,13.328239356966227],[74.73879801435464,13.328241144707588],[74.740529345031,13.328242920638685],[74.74226067595833,13.328244684759508],[74.74399200713493,13.328246437070042],[74.74572333855912,13.328248177570288],[74.74745467022923,13.328249906260234],[74.74918600214359,13.328251623139872],[74.75091733430051,13.328253328209193],[74.75264866669833,13.328255021468193],[74.7543799993354,13.328256702916864],[74.75611133221,13.328258372555194],[74.75784266532047,13.32826003038318],[74.75957399866515,13.328261676400816],[74.76130533224236,13.32826331060809],[74.76130366936361,13.329958761824907],[74.76130200625401,13.331654212815389],[74.76130034291354,13.333349663579517],[74.7612986793422,13.335045114117255],[74.76129701553997,13.336740564428586],[74.76129535150685,13.338436014513476],[74.76129368724284,13.340131464371904],[74.76129202274791,13.341826914003835],[74.76129035802208,13.343522363409251],[74.76128869306531,13.345217812588125],[74.76128702787763,13.346913261540424],[74.761285362459,13.348608710266127],[74.76128369680944,13.350304158765203],[74.76128203092892,13.351999607037628],[74.76128036481745,13.353695055083373],[74.761278698475,13.35539050290242],[74.75954717171854,13.355388865250205],[74.75781564519474,13.355387215762732],[74.75608411890526,13.355385554440014],[74.75435259285179,13.355383881282053],[74.75262106703597,13.35538219628886],[74.75088954145953,13.355380499460436],[74.74915801612411,13.355378790796797],[74.74742649103139,13.355377070297946],[74.74569496618305,13.35537533796389],[74.74396344158076,13.355373593794639],[74.74223191722619,13.355371837790202],[74.74050039312104,13.355370069950581],[74.73876886926695,13.35536829027579],[74.73703734566563,13.355366498765834],[74.73530582231872,13.35536469542072],[74.73357429922794,13.35536288024046],[74.73357615894967,13.353667436053444],[74.73357801841364,13.351971991639674],[74.73357987761983,13.350276546999178],[74.73358173656828,13.348581102131984],[74.73358359525898,13.346885657038113],[74.73358545369194,13.345190211717599],[74.73358731186717,13.343494766170462],[74.7335891697847,13.341799320396731],[74.73359102744449,13.340103874396437],[74.7335928848466,13.338408428169599],[74.733594741991,13.336712981716246],[74.73359659887772,13.335017535036412],[74.73359845550677,13.333322088130114],[74.73360031187813,13.331626640997381],[74.73360216799186,13.329931193638242],[74.73360402384792,13.328235746052723]]]}}
