{"type":"FeatureCollection","features":[{"type":"Feature","geometry":{"type":"Polygon","coordinates":[[[74.60929075191252,13.859750679755178],[74.60957994718665,13.859751141152893],[74.60986914247134,13.859751602208979],[74.6101583377666,13.859752062923445],[74.61044753307243,13.859752523296285],[74.6107367283888,13.859752983327498],[74.61102592371572,13.85975344301709],[74.61131511905319,13.859753902365062],[74.61131558900938,13.859471343244644],[74.61131605895504,13.859188784117698],[74.61131652889019,13.85890622498423],[74.61131699881479,13.85862366584423],[74.61131746872886,13.858341106697708],[74.61131793863241,13.858058547544658],[74.61131840852543,13.85777598838508],[74.6113188784079,13.857493429218982],[74.61102968586736,13.857492969948819],[74.61074049333736,13.857492510337092],[74.61045130081791,13.8574920503838],[74.61016210830901,13.857491590088943],[74.60987291581067,13.857491129452521],[74.60958372332288,13.85749066847453],[74.60937081821373,13.857490328848506],[74.60900311673208,13.858817750200704],[74.60900297487723,13.858902540869046],[74.60900250214507,13.859185099924504],[74.60900202940233,13.859467658973436],[74.60900155664899,13.859750218015844],[74.60929075191252,13.859750679755178]]]},"properties":{"event_id":2728,"grid_col":1831,"grid_row":-6129,"flooded":1,"jrc_perm_water":0,"clear_views":36.0,"observation_valid":1,"processing_scale_m":250,"evidence":"historical_event_window_maximum"}},{"type":"Feature","geometry":{"type":"Polygon","coordinates":[[[74.61855975964971,13.850723372240939],[74.61884894407368,13.850723822401454],[74.61913812850796,13.850724272220578],[74.61942731295258,13.850724721698306],[74.6197164974075,13.850725170834641],[74.6200056818727,13.85072561962958],[74.62029486634822,13.850726068083127],[74.62058405083401,13.85072651619528],[74.6205845092727,13.850443956558678],[74.62058496770112,13.850161396915555],[74.62058542611925,13.849878837265905],[74.62058588452712,13.849596277609738],[74.62058634292471,13.849313717947048],[74.62058680131202,13.849031158277839],[74.62058725968906,13.848748598602102],[74.6205877180558,13.848466038919852],[74.62029853636494,13.848465590883652],[74.62000935468437,13.848465142506114],[74.61972017301407,13.84846469378724],[74.61943099135408,13.848464244727033],[74.61914180970442,13.848463795325488],[74.61885262806506,13.848463345582603],[74.61856344643601,13.848462895498384],[74.6182742648173,13.848462445072832],[74.61827380365584,13.848745004678932],[74.61827334248404,13.84902756427851],[74.61827288130189,13.849310123871568],[74.6182724201094,13.849592683458104],[74.61827195890659,13.849875243038117],[74.61827149769343,13.850157802611609],[74.61827103646992,13.850440362178581],[74.61827057523608,13.85072292173903],[74.61855975964971,13.850723372240939]]]},"properties":{"event_id":2728,"grid_col":1835,"grid_row":-6125,"flooded":1,"jrc_perm_water":0,"clear_views":36.0,"observation_valid":1,"processing_scale_m":250,"evidence":"historical_event_window_maximum"}},{"type":"Feature","geometry":{"type":"Polygon","coordinates":[[[75.04421312565017,13.67469406944511],[75.04450210026613,13.67469401772786],[75.04479107488086,13.67469396567369],[75.0450800494944,13.674693913282601],[75.04536902410672,13.674693860554592],[75.0456579987178,13.674693807489664],[75.04594697332766,13.674693754087814],[75.04623594793628,13.674693700349044],[75.04623589280779,13.674411130542197],[75.04623583768056,13.674128560728915],[75.04623578255459,13.673845990909207],[75.04623572742985,13.673563421083063],[75.04623567230637,13.673280851250489],[75.04623561718412,13.672998281411486],[75.04623556206315,13.67271571156605],[75.0462355069434,13.672433141714182],[75.04594653509099,13.672433195443737],[75.04565756323733,13.672433248836425],[75.04536859138244,13.672433301892253],[75.04507961952633,13.672433354611217],[75.044790647669,13.67243340699332],[75.04450167581047,13.672433459038562],[75.04421270395072,13.672433510746941],[75.0439237320898,13.672433562118458],[75.04392378445354,13.67271613197934],[75.04392383681848,13.67299870183379],[75.04392388918461,13.673281271681809],[75.04392394155192,13.6735638415234],[75.04392399392042,13.673846411358555],[75.0439240462901,13.674128981187282],[75.04392409866098,13.674411551009577],[75.04392415103304,13.674694120825441],[75.04421312565017,13.67469406944511]]]},"properties":{"event_id":2728,"grid_col":2019,"grid_row":-6047,"flooded":1,"jrc_perm_water":0,"clear_views":35.0,"observation_valid":1,"processing_scale_m":250,"evidence":"historical_event_window_maximum"}},{"type":"Feature","geometry":{"type":"Polygon","coordinates":[[[75.04652447879457,13.67243308764777],[75.04681345064448,13.672433033244495],[75.04710242249313,13.672432978504354],[75.0473913943405,13.672432923427356],[75.04768036618658,13.672432868013495],[75.04796933803138,13.67243281226277],[75.04825830987488,13.672432756175183],[75.04854728171709,13.672432699750736],[75.04854722384269,13.672150129901915],[75.04854716596958,13.671867560046664],[75.0485471080978,13.671584990184988],[75.04854705022733,13.671302420316875],[75.04854699235815,13.671019850442336],[75.0485469344903,13.670737280561365],[75.04854687662376,13.670454710673964],[75.04854681875852,13.670172140780133],[75.04825784967203,13.670172197194903],[75.04796888058422,13.670172253272868],[75.04767991149512,13.67017230901403],[75.04739094240473,13.670172364418384],[75.04710197331306,13.670172419485937],[75.04681300422013,13.670172474216685],[75.04652403512591,13.670172528610628],[75.04623506603046,13.670172582667766],[75.0462351211402,13.670455152571074],[75.0462351762512,13.670737722467951],[75.04623523136344,13.6710202923584],[75.04623528647693,13.671302862242413],[75.04623534159168,13.67158543212],[75.04623539670767,13.67186800199116],[75.04623545182491,13.672150571855889],[75.0462355069434,13.672433141714182],[75.04652447879457,13.67243308764777]]]},"properties":{"event_id":2728,"grid_col":2020,"grid_row":-6046,"flooded":1,"jrc_perm_water":0,"clear_views":35.0,"observation_valid":1,"processing_scale_m":250,"evidence":"historical_event_window_maximum"}},{"type":"Feature","geometry":{"type":"Polygon","coordinates":[[[75.04652403512591,13.670172528610628],[75.04681300422013,13.670172474216685],[75.04710197331306,13.670172419485937],[75.04739094240473,13.670172364418384],[75.04767991149512,13.67017230901403],[75.04796888058422,13.670172253272868],[75.04825784967203,13.670172197194903],[75.04854681875852,13.670172140780133],[75.04854676089461,13.669889570879874],[75.048546703032,13.669607000973187],[75.0485466451707,13.669324431060067],[75.04854658731072,13.669041861140519],[75.04854652945204,13.668759291214542],[75.04854647159468,13.668476721282136],[75.04854641373863,13.6681941513433],[75.04854635588389,13.667911581398037],[75.04825738955259,13.667911637803128],[75.04796842321998,13.66791169387147],[75.04767945688609,13.667911749603068],[75.04739049055091,13.667911804997917],[75.04710152421443,13.667911860056023],[75.04681255787669,13.667911914777381],[75.04652359153769,13.667911969161992],[75.04623462519744,13.667912023209858],[75.04623468029719,13.668194593164596],[75.0462347353982,13.668477163112906],[75.04623479050046,13.668759733054792],[75.04623484560395,13.669042302990242],[75.04623490070871,13.669324872919267],[75.04623495581471,13.669607442841864],[75.04623501092196,13.669890012758032],[75.04623506603046,13.670172582667766],[75.04652403512591,13.670172528610628]]]},"properties":{"event_id":2728,"grid_col":2020,"grid_row":-6045,"flooded":1,"jrc_perm_water":0,"clear_views":35.0,"observation_valid":1,"processing_scale_m":250,"evidence":"historical_event_window_maximum"}},{"type":"Feature","geometry":{"type":"Polygon","coordinates":[[[75.04190012994809,13.667912793518251],[75.04218909630626,13.66791274452158],[75.04247806266329,13.667912695188168],[75.04276702901917,13.66791264551801],[75.0430559953739,13.667912595511103],[75.04334496172747,13.667912545167448],[75.04363392807986,13.66791249448705],[75.04392289443108,13.6679124434699],[75.04392284208748,13.66762987349972],[75.04392278974508,13.667347303523107],[75.04392273740388,13.667064733540071],[75.04392268506385,13.666782163550604],[75.04392263272501,13.666499593554708],[75.04392258038735,13.666217023552383],[75.04392252805089,13.665934453543631],[75.0439224757156,13.665651883528454],[75.0436335121191,13.665651934536847],[75.0433445485214,13.665651985208548],[75.04305558492256,13.665652035543562],[75.04276662132253,13.665652085541891],[75.04247765772134,13.665652135203528],[75.04218869411902,13.665652184528476],[75.04189973051555,13.665652233516738],[75.04161076691096,13.665652282168306],[75.04161081649175,13.66593485219204],[75.04161086607367,13.66621742220934],[75.04161091565672,13.666499992220217],[75.04161096524089,13.666782562224665],[75.04161101482617,13.667065132222683],[75.04161106441259,13.667347702214272],[75.04161111400012,13.667630272199435],[75.04161116358878,13.66791284217817],[75.04190012994809,13.667912793518251]]]},"properties":{"event_id":2728,"grid_col":2018,"grid_row":-6044,"flooded":1,"jrc_perm_water":0,"clear_views":35.0,"observation_valid":1,"processing_scale_m":250,"evidence":"historical_event_window_maximum"}},{"type":"Feature","geometry":{"type":"Polygon","coordinates":[[[75.0442118607811,13.667912392116008],[75.04450082712995,13.66791234042537],[75.04478979347758,13.667912288397986],[75.045078759824,13.66791223603385],[75.0453677261692,13.667912183332973],[75.04565669251319,13.667912130295347],[75.04594565885593,13.667912076920977],[75.04623462519744,13.667912023209858],[75.04623457009893,13.667629453248688],[75.04623451500167,13.667346883281091],[75.04623445990566,13.667064313307069],[75.0462344048109,13.666781743326615],[75.0462343497174,13.666499173339735],[75.04623429462512,13.666216603346424],[75.0462342395341,13.665934033346687],[75.04623418444434,13.665651463340522],[75.04594522085753,13.665651517042422],[75.0456562572695,13.665651570407636],[75.04536729368021,13.665651623436162],[75.04507833008971,13.665651676127998],[75.044789366498,13.665651728483144],[75.04450040290507,13.6656517805016],[75.04421143931093,13.665651832183373],[75.0439224757156,13.665651883528454],[75.04392252805089,13.665934453543631],[75.04392258038735,13.666217023552383],[75.04392263272501,13.666499593554708],[75.04392268506385,13.666782163550604],[75.04392273740388,13.667064733540071],[75.04392278974508,13.667347303523107],[75.04392284208748,13.66762987349972],[75.04392289443108,13.6679124434699],[75.0442118607811,13.667912392116008]]]},"properties":{"event_id":2728,"grid_col":2019,"grid_row":-6044,"flooded":1,"jrc_perm_water":0,"clear_views":35.0,"observation_valid":1,"processing_scale_m":250,"evidence":"historical_event_window_maximum"}},{"type":"Feature","geometry":{"type":"Polygon","coordinates":[[[75.03958726706324,13.661131491934599],[75.03987622516763,13.661131445655741],[75.04016518327093,13.661131399040308],[75.04045414137316,13.661131352088299],[75.04074309947428,13.661131304799724],[75.04103205757434,13.66113125717457],[75.04132101567326,13.661131209212844],[75.04160997377106,13.661131160914545],[75.04160992420937,13.660848590781564],[75.04160987464881,13.660566020642158],[75.04160982508935,13.660283450496323],[75.04160977553104,13.660000880344063],[75.04160972597384,13.65971831018538],[75.04160967641778,13.65943574002027],[75.04160962686282,13.659153169848738],[75.04160957730899,13.658870599670777],[75.04132062196439,13.658870647960784],[75.04103166661866,13.658870695914278],[75.04074271127186,13.658870743531255],[75.04045375592392,13.658870790811715],[75.0401648005749,13.658870837755662],[75.0398758452248,13.658870884363091],[75.03958688987362,13.658870930634006],[75.03929793452136,13.658870976568405],[75.0392979813222,13.659153546754453],[75.03929802812411,13.659436116934074],[75.03929807492706,13.659718687107272],[75.03929812173108,13.660001257274045],[75.03929816853616,13.660283827434395],[75.0392982153423,13.660566397588319],[75.03929826214952,13.660848967735811],[75.03929830895778,13.661131537876887],[75.03958726706324,13.661131491934599]]]},"properties":{"event_id":2728,"grid_col":2017,"grid_row":-6041,"flooded":1,"jrc_perm_water":0,"clear_views":35.0,"observation_valid":1,"processing_scale_m":250,"evidence":"historical_event_window_maximum"}},{"type":"Feature","geometry":{"type":"Polygon","coordinates":[[[75.05345420004905,13.647565519603921],[75.05374314158121,13.64756545723386],[75.05403208311192,13.64756539452757],[75.05432102464117,13.647565331485055],[75.05460996616895,13.647565268106318],[75.05489389406364,13.647565205496912],[75.05472606526655,13.64530467911766],[75.05460944637892,13.645304704829307],[75.05432050760135,13.645304768197157],[75.05403156882231,13.645304831228838],[75.0537426300418,13.645304893924353],[75.05345369125985,13.645304956283697],[75.05316475247646,13.645305018306873],[75.0531648157263,13.6455875887457],[75.05316487897758,13.64587015917811],[75.05316494223031,13.6461527296041],[75.05316500548447,13.64643530002367],[75.05316506874006,13.646717870436822],[75.05316513199709,13.647000440843554],[75.05316519525554,13.647283011243868],[75.05316525851545,13.647565581637757],[75.05345420004905,13.647565519603921]]]},"properties":{"event_id":2728,"grid_col":2023,"grid_row":-6035,"flooded":1,"jrc_perm_water":0,"clear_views":33.0,"observation_valid":1,"processing_scale_m":250,"evidence":"historical_event_window_maximum"}},{"type":"Feature","geometry":{"type":"Polygon","coordinates":[[[75.03727311739534,13.645307911881883],[75.0375620562461,13.645307868347983],[75.03785099509585,13.645307824477916],[75.03813993394458,13.64530778027168],[75.03842887279227,13.645307735729277],[75.03871781163892,13.6453076908507],[75.03900675048453,13.64530764563596],[75.0392956893291,13.645307600085047],[75.03929564258024,13.645025029584339],[75.03929559583247,13.644742459077213],[75.03929554908575,13.644459888563663],[75.0392955023401,13.644177318043699],[75.0392954555955,13.643894747517319],[75.03929540885194,13.643612176984519],[75.03929536210947,13.643329606445299],[75.03929531536805,13.643047035899665],[75.0390063792732,13.643047081442747],[75.0387174431773,13.643047126649718],[75.03842850708035,13.643047171520578],[75.03813957098238,13.64304721605533],[75.03785063488337,13.643047260253969],[75.03756169878334,13.643047304116495],[75.03727276268228,13.643047347642915],[75.03698382658023,13.643047390833216],[75.03698387057216,13.643329961386481],[75.03698391456507,13.643612531933325],[75.03698395855899,13.643895102473751],[75.03698400255392,13.64417767300776],[75.03698404654983,13.64446024353535],[75.03698409054675,13.644742814056523],[75.03698413454467,13.645025384571275],[75.03698417854358,13.645307955079609],[75.03727311739534,13.645307911881883]]]},"properties":{"event_id":2728,"grid_col":2016,"grid_row":-6034,"flooded":1,"jrc_perm_water":0,"clear_views":33.0,"observation_valid":1,"processing_scale_m":250,"evidence":"historical_event_window_maximum"}},{"type":"Feature","geometry":{"type":"Polygon","coordinates":[[[75.03727276268228,13.643047347642915],[75.03756169878334,13.643047304116495],[75.03785063488337,13.643047260253969],[75.03813957098238,13.64304721605533],[75.03842850708035,13.643047171520578],[75.0387174431773,13.643047126649718],[75.0390063792732,13.643047081442747],[75.03929531536805,13.643047035899665],[75.0392952686277,13.642764465347609],[75.03929522188841,13.642481894789139],[75.03929517515017,13.642199324224247],[75.039295128413,13.641916753652941],[75.03929508167688,13.641634183075215],[75.03929503494183,13.641351612491075],[75.03929498820784,13.641069041900517],[75.0392949414749,13.640786471303542],[75.03900600812928,13.640786516838796],[75.0387170747826,13.640786562037997],[75.03842814143486,13.640786606901148],[75.03813920808608,13.640786651428243],[75.03785027473629,13.640786695619285],[75.03756134138546,13.640786739474272],[75.03727240803363,13.640786782993208],[75.03698347468078,13.64078682617609],[75.03698351866473,13.641069396780688],[75.03698356264965,13.641351967378872],[75.03698360663559,13.641634537970639],[75.03698365062252,13.641917108555992],[75.03698369461046,13.642199679134926],[75.03698373859937,13.64248224970744],[75.0369837825893,13.64276482027354],[75.03698382658023,13.643047390833216],[75.03727276268228,13.643047347642915]]]},"properties":{"event_id":2728,"grid_col":2016,"grid_row":-6033,"flooded":1,"jrc_perm_water":0,"clear_views":33.0,"observation_valid":1,"processing_scale_m":250,"evidence":"historical_event_window_maximum"}},{"type":"Feature","geometry":{"type":"Polygon","coordinates":[[[75.041895740173,13.643046610886916],[75.04218467625688,13.643046561982725],[75.04247361233963,13.64304651274242],[75.04276254842124,13.643046463166005],[75.04305148450167,13.64304641325348],[75.04334042058096,13.643046363004842],[75.04362935665907,13.643046312420092],[75.04391829273601,13.643046261499235],[75.0439182404968,13.642763690963815],[75.04391818825876,13.642481120421982],[75.04391813602192,13.64219854987373],[75.04391808378625,13.641915979319064],[75.04391803155178,13.641633408757977],[75.0439179793185,13.641350838190476],[75.0439179270864,13.641068267616554],[75.04391787485548,13.640785697036218],[75.04362894152776,13.640785747948323],[75.04334000819885,13.640785798524378],[75.04305107486879,13.640785848764379],[75.04276214153754,13.640785898668327],[75.04247320820517,13.640785948236221],[75.04218427487163,13.64078599746806],[75.04189534153694,13.640786046363848],[75.04160640820115,13.640786094923584],[75.04160645768307,13.641068665512472],[75.04160650716611,13.64135123609494],[75.04160655665028,13.641633806670992],[75.04160660613557,13.64191637724063],[75.04160665562199,13.64219894780385],[75.04160670510953,13.64248151836065],[75.04160675459819,13.642764088911033],[75.04160680408798,13.643046659455],[75.041895740173,13.643046610886916]]]},"properties":{"event_id":2728,"grid_col":2018,"grid_row":-6033,"flooded":1,"jrc_perm_water":0,"clear_views":33.0,"observation_valid":1,"processing_scale_m":250,"evidence":"historical_event_window_maximum"}},{"type":"Feature","geometry":{"type":"Polygon","coordinates":[[[75.04420722881176,13.643046210242263],[75.04449616488631,13.643046158649181],[75.04478510095967,13.64304610671999],[75.04507403703182,13.643046054454686],[75.04536297310274,13.643046001853273],[75.04565190917245,13.643045948915747],[75.04594084524092,13.64304589564211],[75.04622978130816,13.643045842032365],[75.04622972631951,13.642763271505961],[75.04622967133211,13.642480700973136],[75.04622961634597,13.6421981304339],[75.04622956136106,13.641915559888243],[75.04622950637741,13.641632989336172],[75.046229451395,13.64135041877768],[75.04622939641384,13.641067848212773],[75.04622934143393,13.640785277641449],[75.04594040811591,13.64078533124198],[75.04565147479666,13.640785384506458],[75.04536254147617,13.640785437434886],[75.04507360815444,13.640785490027257],[75.0447846748315,13.640785542283577],[75.04449574150738,13.640785594203841],[75.04420680818201,13.640785645788057],[75.04391787485548,13.640785697036218],[75.0439179270864,13.641068267616554],[75.0439179793185,13.641350838190476],[75.04391803155178,13.641633408757977],[75.04391808378625,13.641915979319064],[75.04391813602192,13.64219854987373],[75.04391818825876,13.642481120421982],[75.0439182404968,13.642763690963815],[75.04391829273601,13.643046261499235],[75.04420722881176,13.643046210242263]]]},"properties":{"event_id":2728,"grid_col":2019,"grid_row":-6033,"flooded":1,"jrc_perm_water":0,"clear_views":35.0,"observation_valid":1,"processing_scale_m":250,"evidence":"historical_event_window_maximum"}},{"type":"Feature","geometry":{"type":"Polygon","coordinates":[[[75.04189534153694,13.640786046363848],[75.04218427487163,13.64078599746806],[75.04247320820517,13.640785948236221],[75.04276214153754,13.640785898668327],[75.04305107486879,13.640785848764379],[75.04334000819885,13.640785798524378],[75.04362894152776,13.640785747948323],[75.04391787485548,13.640785697036218],[75.04391782262576,13.640503126449463],[75.0439177703972,13.640220555856294],[75.04391771816985,13.639937985256708],[75.04391766594367,13.639655414650706],[75.04391761371868,13.639372844038288],[75.0439175614949,13.639090273419448],[75.04391750927226,13.638807702794198],[75.04391745705082,13.638525132162531],[75.04362852647182,13.638525183065886],[75.04333959589164,13.638525233633246],[75.04305066531028,13.638525283864608],[75.04276173472775,13.638525333759977],[75.04247280414407,13.63852538331935],[75.04218387355925,13.638525432542727],[75.04189494297329,13.638525481430108],[75.0416060123862,13.638525529981496],[75.04160606185913,13.638808100621711],[75.0416061113332,13.639090671255518],[75.04160616080837,13.639373241882902],[75.04160621028468,13.639655812503868],[75.04160625976212,13.639938383118425],[75.04160630924066,13.64022095372656],[75.04160635872034,13.640503524328281],[75.04160640820115,13.640786094923584],[75.04189534153694,13.640786046363848]]]},"properties":{"event_id":2728,"grid_col":2018,"grid_row":-6032,"flooded":1,"jrc_perm_water":0,"clear_views":35.0,"observation_valid":1,"processing_scale_m":250,"evidence":"historical_event_window_maximum"}},{"type":"Feature","geometry":{"type":"Polygon","coordinates":[[[75.04651827475071,13.640785223704862],[75.04680720806623,13.640785169432222],[75.04709614138048,13.640785114823531],[75.04738507469347,13.640785059878787],[75.04767400800516,13.64078500459799],[75.04796294131559,13.640784948981137],[75.0482518746247,13.640784893028236],[75.04854080793253,13.640784836739279],[75.04854075020494,13.640502266171012],[75.04854069247865,13.640219695596329],[75.04854063475368,13.639937125015226],[75.04854057703001,13.639654554427713],[75.04854051930766,13.63937198383378],[75.04854046158663,13.63908941323343],[75.0485404038669,13.638806842626666],[75.04854034614849,13.638524272013484],[75.04825141558939,13.638524328292764],[75.04796248502898,13.638524384236048],[75.04767355446727,13.638524439843339],[75.04738462390428,13.638524495114636],[75.04709569334001,13.638524550049933],[75.04680676277445,13.638524604649238],[75.04651783220766,13.638524658912544],[75.0462289016396,13.638524712839859],[75.04622895660953,13.638807283462514],[75.04622901158069,13.639089854078755],[75.04622906655312,13.639372424688577],[75.04622912152678,13.639654995291984],[75.0462291765017,13.639937565888975],[75.04622923147787,13.640220136479549],[75.04622928645527,13.64050270706371],[75.04622934143393,13.640785277641449],[75.04651827475071,13.640785223704862]]]},"properties":{"event_id":2728,"grid_col":2020,"grid_row":-6032,"flooded":1,"jrc_perm_water":0,"clear_views":35.0,"observation_valid":1,"processing_scale_m":250,"evidence":"historical_event_window_maximum"}},{"type":"Feature","geometry":{"type":"Polygon","coordinates":[[[75.05114120764297,13.640784315016274],[75.05143014093733,13.640784255366787],[75.0517190742303,13.640784195381247],[75.05200800752189,13.640784135059652],[75.05229694081206,13.640784074402005],[75.05258587410081,13.640784013408307],[75.05287480738816,13.640783952078554],[75.05316374067408,13.640783890412749],[75.05316367744862,13.64050131986482],[75.05316361422462,13.64021874931047],[75.05316355100203,13.639936178749704],[75.05316348778088,13.639653608182526],[75.05316342456118,13.63937103760893],[75.05316336134291,13.639088467028914],[75.05316329812608,13.638805896442483],[75.05316323491067,13.638523325849636],[75.05287430437346,13.63852338750484],[75.05258537383483,13.63852344882405],[75.05229644329478,13.638523509807266],[75.05200751275332,13.638523570454483],[75.05171858221046,13.638523630765707],[75.0514296516662,13.638523690740936],[75.05114072112053,13.63852375038017],[75.05085179057352,13.638523809683408],[75.05085185104042,13.638806380286656],[75.0508519115087,13.639088950883485],[75.05085197197836,13.639371521473894],[75.05085203244938,13.63965409205789],[75.05085209292179,13.639936662635469],[75.05085215339555,13.640219233206633],[75.05085221387071,13.64050180377138],[75.05085227434722,13.64078437432971],[75.05114120764297,13.640784315016274]]]},"properties":{"event_id":2728,"grid_col":2022,"grid_row":-6032,"flooded":1,"jrc_perm_water":0,"clear_views":35.0,"observation_valid":1,"processing_scale_m":250,"evidence":"historical_event_window_maximum"}},{"type":"Feature","geometry":{"type":"Polygon","coordinates":[[[74.69258079669363,13.63720855943622],[74.69258116219345,13.636925992776543],[74.69258152768498,13.636643426110444],[74.6925818931682,13.636360859437922],[74.69258225864313,13.636078292758972],[74.69229333514195,13.636077935161232],[74.69200441164908,13.63607757722758],[74.6917154881645,13.636077218958011],[74.69142656468827,13.636076860352528],[74.69113764122037,13.63607650141113],[74.69084871776079,13.63607614213382],[74.69055979430956,13.636075782520592],[74.6902708708667,13.636075422571455],[74.69027050264397,13.636357989188705],[74.69027013441288,13.636640555799534],[74.69026976617343,13.636923122403937],[74.6902694014286,13.637203001086561],[74.69258048220482,13.637451684135394],[74.69258079669363,13.63720855943622]]]},"properties":{"event_id":2728,"grid_col":1866,"grid_row":-6031,"flooded":1,"jrc_perm_water":0,"clear_views":35.0,"observation_valid":1,"processing_scale_m":250,"evidence":"historical_event_window_maximum"}},{"type":"Feature","geometry":{"type":"Polygon","coordinates":[[[74.69489183323269,13.637493975084633],[74.69489219599275,13.637211408370145],[74.6948925587446,13.636928841649235],[74.6948929214882,13.636646274921905],[74.69489328422355,13.636363708188142],[74.69489364695069,13.636081141447965],[74.69460472338335,13.63608078653754],[74.69431579982422,13.636080431291203],[74.69402687627337,13.636080075708952],[74.69373795273077,13.636079719790787],[74.69344902919644,13.636079363536703],[74.69316010567039,13.636079006946709],[74.69287118215262,13.636078650020796],[74.69258225864313,13.636078292758972],[74.6925818931682,13.636360859437922],[74.69258152768498,13.636643426110444],[74.69258116219345,13.636925992776543],[74.69258079669363,13.63720855943622],[74.69258048220482,13.637451684135394],[74.69489156825908,13.63770036775217],[74.69489183323269,13.637493975084633]]]},"properties":{"event_id":2728,"grid_col":1867,"grid_row":-6031,"flooded":1,"jrc_perm_water":0,"clear_views":35.0,"observation_valid":1,"processing_scale_m":250,"evidence":"historical_event_window_maximum"}},{"type":"Feature","geometry":{"type":"Polygon","coordinates":[[[75.04189494297329,13.638525481430108],[75.04218387355925,13.638525432542727],[75.04247280414407,13.63852538331935],[75.04276173472775,13.638525333759977],[75.04305066531028,13.638525283864608],[75.04333959589164,13.638525233633246],[75.04362852647182,13.638525183065886],[75.04391745705082,13.638525132162531],[75.04391740483058,13.638242561524446],[75.04391735261153,13.637959990879947],[75.04391730039364,13.637677420229032],[75.04391724817697,13.637394849571704],[75.04391719596146,13.637112278907958],[75.04391714374715,13.636829708237796],[75.04391709153401,13.636547137561221],[75.04391703932207,13.636264566878227],[75.04362811149127,13.63626461777283],[75.0433391836593,13.636264668331497],[75.04305025582615,13.636264718554223],[75.04276132799183,13.636264768441013],[75.04247240015637,13.636264817991865],[75.04218347231976,13.63626486720678],[75.04189454448202,13.636264916085755],[75.04160561664312,13.636264964628795],[75.04160566610707,13.636547535320338],[75.04160571557216,13.63683010600546],[75.04160576503836,13.637112676684174],[75.04160581450567,13.63739524735647],[75.04160586397411,13.637677818022345],[75.04160591344369,13.637960388681812],[75.04160596291437,13.638242959334864],[75.0416060123862,13.638525529981496],[75.04189494297329,13.638525481430108]]]},"properties":{"event_id":2728,"grid_col":2018,"grid_row":-6031,"flooded":1,"jrc_perm_water":0,"clear_views":35.0,"observation_valid":1,"processing_scale_m":250,"evidence":"historical_event_window_maximum"}},{"type":"Feature","geometry":{"type":"Polygon","coordinates":[[[75.04420638762866,13.638525080923182],[75.04449531820529,13.638525029347836],[75.04478424878072,13.638524977436493],[75.04507317935494,13.638524925189161],[75.04536210992795,13.638524872605824],[75.04565104049973,13.638524819686499],[75.04593997107028,13.638524766431178],[75.0462289016396,13.638524712839859],[75.04622884667091,13.638242142210785],[75.04622879170348,13.637959571575298],[75.0462287367373,13.637677000933396],[75.04622868177238,13.637394430285077],[75.0462286268087,13.637111859630346],[75.04622857184626,13.636829288969198],[75.04622851688507,13.636546718301632],[75.04622846192514,13.636264147627653],[75.04593953410404,13.636264201209755],[75.0456506062817,13.636264254455922],[75.04536167845814,13.636264307366151],[75.04507275063332,13.636264359940443],[75.04478382280733,13.636264412178795],[75.0444948949801,13.636264464081208],[75.04420596715168,13.636264515647687],[75.04391703932207,13.636264566878227],[75.04391709153401,13.636547137561221],[75.04391714374715,13.636829708237796],[75.04391719596146,13.637112278907958],[75.04391724817697,13.637394849571704],[75.04391730039364,13.637677420229032],[75.04391735261153,13.637959990879947],[75.04391740483058,13.638242561524446],[75.04391745705082,13.638525132162531],[75.04420638762866,13.638525080923182]]]},"properties":{"event_id":2728,"grid_col":2019,"grid_row":-6031,"flooded":1,"jrc_perm_water":0,"clear_views":35.0,"observation_valid":1,"processing_scale_m":250,"evidence":"historical_event_window_maximum"}},{"type":"Feature","geometry":{"type":"Polygon","coordinates":[[[75.04651783220766,13.638524658912544],[75.04680676277445,13.638524604649238],[75.04709569334001,13.638524550049933],[75.04738462390428,13.638524495114636],[75.04767355446727,13.638524439843339],[75.04796248502898,13.638524384236048],[75.04825141558939,13.638524328292764],[75.04854034614849,13.638524272013484],[75.04854028843138,13.638241701393888],[75.04854023071559,13.637959130767873],[75.0485401730011,13.637676560135446],[75.04854011528792,13.637393989496601],[75.04854005757606,13.637111418851342],[75.04853999986551,13.636828848199665],[75.04853994215627,13.636546277541576],[75.04853988444833,13.636263706877068],[75.04825095663743,13.636263763146674],[75.04796202882524,13.636263819080343],[75.04767310101174,13.63626387467807],[75.04738417319695,13.636263929939863],[75.0470952453809,13.636263984865717],[75.04680631756356,13.636264039455634],[75.04651738974498,13.636264093709611],[75.04622846192514,13.636264147627653],[75.04622851688507,13.636546718301632],[75.04622857184626,13.636829288969198],[75.0462286268087,13.637111859630346],[75.04622868177238,13.637394430285077],[75.0462287367373,13.637677000933396],[75.04622879170348,13.637959571575298],[75.04622884667091,13.638242142210785],[75.0462289016396,13.638524712839859],[75.04651783220766,13.638524658912544]]]},"properties":{"event_id":2728,"grid_col":2020,"grid_row":-6031,"flooded":1,"jrc_perm_water":0,"clear_views":35.0,"observation_valid":1,"processing_scale_m":250,"evidence":"historical_event_window_maximum"}},{"type":"Feature","geometry":{"type":"Polygon","coordinates":[[[75.05114072112053,13.63852375038017],[75.0514296516662,13.638523690740936],[75.05171858221046,13.638523630765707],[75.05200751275332,13.638523570454483],[75.05229644329478,13.638523509807266],[75.05258537383483,13.63852344882405],[75.05287430437346,13.63852338750484],[75.05316323491067,13.638523325849636],[75.0531631716967,13.638240755250374],[75.05316310848417,13.637958184644694],[75.05316304527307,13.637675614032602],[75.05316298206341,13.637393043414095],[75.05316291885518,13.63711047278917],[75.05316285564841,13.63682790215783],[75.05316279244305,13.636545331520074],[75.05316272923913,13.636262760875903],[75.05287380145012,13.636262822520507],[75.05258487365971,13.636262883829174],[75.05229594586787,13.636262944801903],[75.05200701807462,13.636263005438696],[75.05171809027996,13.636263065739548],[75.0514291624839,13.636263125704467],[75.05114023468647,13.636263185333446],[75.05085130688765,13.636263244626488],[75.05085136734358,13.636545815281059],[75.05085142780088,13.63682838592921],[75.05085148825955,13.637110956570947],[75.05085154871959,13.637393527206271],[75.05085160918102,13.637676097835179],[75.0508516696438,13.63795866845767],[75.05085173010798,13.638241239073748],[75.05085179057352,13.638523809683408],[75.05114072112053,13.63852375038017]]]},"properties":{"event_id":2728,"grid_col":2022,"grid_row":-6031,"flooded":1,"jrc_perm_water":0,"clear_views":35.0,"observation_valid":1,"processing_scale_m":250,"evidence":"historical_event_window_maximum"}},{"type":"Feature","geometry":{"type":"Polygon","coordinates":[[[75.0488288122579,13.63626365027153],[75.04911774006618,13.63626359333005],[75.0494066678731,13.636263536052631],[75.04969559567873,13.636263478439277],[75.04998452348298,13.636263420489987],[75.0502734512859,13.636263362204758],[75.05056237908745,13.636263303583592],[75.05085130688765,13.636263244626488],[75.0508512464331,13.635980673965504],[75.05085118597991,13.635698103298106],[75.0508511255281,13.635415532624293],[75.05085106507767,13.635132961944068],[75.0508510046286,13.634850391257425],[75.05085094418092,13.634567820564369],[75.05085088373458,13.634285249864897],[75.05085082328965,13.634002679159012],[75.05056189823716,13.63400273810598],[75.05027297318331,13.634002796717066],[75.04998404812811,13.634002854992273],[75.04969512307157,13.6340029129316],[75.04940619801367,13.634002970535047],[75.04911727295445,13.634003027802613],[75.04882834789389,13.6340030847343],[75.04853942283202,13.634003141330108],[75.04853948052947,13.63428571204593],[75.04853953822824,13.634568282755339],[75.0485395959283,13.634850853458328],[75.04853965362969,13.635133424154905],[75.04853971133238,13.63541599484507],[75.04853976903638,13.63569856552882],[75.04853982674169,13.635981136206153],[75.04853988444833,13.636263706877068],[75.0488288122579,13.63626365027153]]]},"properties":{"event_id":2728,"grid_col":2021,"grid_row":-6030,"flooded":1,"jrc_perm_water":0,"clear_views":35.0,"observation_valid":1,"processing_scale_m":250,"evidence":"historical_event_window_maximum"}},{"type":"Feature","geometry":{"type":"Polygon","coordinates":[[[75.05114023468647,13.636263185333446],[75.0514291624839,13.636263125704467],[75.05171809027996,13.636263065739548],[75.05200701807462,13.636263005438696],[75.05229594586787,13.636262944801903],[75.05258487365971,13.636262883829174],[75.05287380145012,13.636262822520507],[75.05316272923913,13.636262760875903],[75.05316266603663,13.635980190225318],[75.05316260283558,13.635697619568319],[75.05316253963598,13.635415048904905],[75.05316247643779,13.635132478235077],[75.05316241324104,13.634849907558833],[75.05316235004574,13.634567336876174],[75.05316228685187,13.634284766187102],[75.05316222365943,13.634002195491618],[75.05287329861814,13.63400225712562],[75.05258437357544,13.634002318423745],[75.0522954485313,13.634002379385988],[75.05200652348577,13.634002440012354],[75.05171759843883,13.634002500302838],[75.05142867339049,13.634002560257443],[75.05113974834076,13.634002619876169],[75.05085082328965,13.634002679159012],[75.05085088373458,13.634285249864897],[75.05085094418092,13.634567820564369],[75.0508510046286,13.634850391257425],[75.05085106507767,13.635132961944068],[75.0508511255281,13.635415532624293],[75.05085118597991,13.635698103298106],[75.0508512464331,13.635980673965504],[75.05085130688765,13.636263244626488],[75.05114023468647,13.636263185333446]]]},"properties":{"event_id":2728,"grid_col":2022,"grid_row":-6030,"flooded":1,"jrc_perm_water":0,"clear_views":35.0,"observation_valid":1,"processing_scale_m":250,"evidence":"historical_event_window_maximum"}},{"type":"Feature","geometry":{"type":"Polygon","coordinates":[[[74.70906197623822,13.627055969806511],[74.70935088922069,13.627056307688573],[74.70963980221099,13.627056645234951],[74.70992871520912,13.627056982445641],[74.71021762821509,13.627057319320649],[74.71050654122888,13.627057655859966],[74.71079545425049,13.627057992063603],[74.7110843672799,13.627058327931545],[74.71108471051497,13.62677576056378],[74.71108505374227,13.62649319318959],[74.71108539696175,13.626210625808982],[74.71108574017344,13.625928058421957],[74.71108608337734,13.625645491028514],[74.71108642657343,13.62536292362865],[74.71108676976172,13.62508035622237],[74.71108711294222,13.624797788809671],[74.71079820265837,13.624797452999514],[74.71050929238231,13.624797116853733],[74.71022038211406,13.624796780372321],[74.70993147185364,13.624796443555281],[74.70964256160104,13.624796106402613],[74.70935365135628,13.624795768914318],[74.70906474111936,13.624795431090389],[74.7087758308903,13.624795092930839],[74.70877548496448,13.625077660285545],[74.70877513903079,13.62536022763383],[74.70877479308926,13.625642794975699],[74.70877444713985,13.62592536231115],[74.70877410118257,13.626207929640184],[74.70877375521746,13.626490496962795],[74.70877340924447,13.626773064278987],[74.70877306326362,13.627055631588762],[74.70906197623822,13.627055969806511]]]},"properties":{"event_id":2728,"grid_col":1874,"grid_row":-6026,"flooded":1,"jrc_perm_water":0,"clear_views":35.0,"observation_valid":1,"processing_scale_m":250,"evidence":"historical_event_window_maximum"}},{"type":"Feature","geometry":{"type":"Polygon","coordinates":[[[74.71368730584697,13.624800795997782],[74.71397621620847,13.624801128451653],[74.71426512657769,13.62480146056989],[74.7145540369546,13.624801792352502],[74.71484294733924,13.624802123799482],[74.71513185773156,13.624802454910837],[74.71542076813157,13.624802785686562],[74.71570967853927,13.624803116126657],[74.71571001622144,13.624520548592937],[74.71571035389593,13.624237981052802],[74.71571069156275,13.62395541350625],[74.71571102922191,13.623672845953283],[74.71571136687338,13.623390278393893],[74.71571170451718,13.62310771082809],[74.71571204215331,13.622825143255872],[74.71571237978176,13.622542575677231],[74.71542347211913,13.622542245294005],[74.71513456446417,13.622541914575203],[74.71484565681689,13.622541583520833],[74.7145567491773,13.62254125213089],[74.71426784154544,13.62254092040538],[74.71397893392127,13.622540588344291],[74.71369002630483,13.622540255947637],[74.71340111869613,13.622539923215411],[74.71340077832284,13.62282249073698],[74.7134004379418,13.623105058252133],[74.71340009755303,13.623387625760868],[74.71339975715655,13.623670193263187],[74.71339941675232,13.623952760759085],[74.71339907634035,13.62423532824857],[74.71339873592065,13.624517895731637],[74.71339839549321,13.624800463208283],[74.71368730584697,13.624800795997782]]]},"properties":{"event_id":2728,"grid_col":1876,"grid_row":-6025,"flooded":1,"jrc_perm_water":0,"clear_views":35.0,"observation_valid":1,"processing_scale_m":250,"evidence":"historical_event_window_maximum"}},{"type":"Feature","geometry":{"type":"Polygon","coordinates":[[[74.70675624584631,13.622532177756687],[74.70704515327516,13.622532518207036],[74.70733406071189,13.622532858321817],[74.70762296815654,13.622533198101024],[74.70791187560907,13.622533537544662],[74.70820078306949,13.622533876652733],[74.70848969053777,13.62253421542523],[74.70877859801394,13.622534553862158],[74.70877894386902,13.622251986449694],[74.70877928971625,13.621969419030814],[74.70877963555562,13.621686851605517],[74.70877998138712,13.621404284173801],[74.70878032721076,13.62112171673567],[74.70878067302655,13.620839149291124],[74.70878101883447,13.620556581840159],[74.70878136463453,13.620274014382778],[74.70849245990293,13.620273676004102],[74.70820355517918,13.620273337289914],[74.7079146504633,13.620272998240216],[74.70762574575531,13.620272658854999],[74.70733684105521,13.620272319134274],[74.70704793636301,13.620271979078035],[74.70675903167871,13.620271638686285],[74.70647012700233,13.620271297959022],[74.70646977845794,13.620553865357946],[74.70646942990564,13.62083643275046],[74.7064690813454,13.621119000136552],[74.70646873277724,13.621401567516232],[74.70646838420116,13.62168413488949],[74.70646803561716,13.621966702256332],[74.70646768702524,13.622249269616761],[74.70646733842538,13.622531836970769],[74.70675624584631,13.622532177756687]]]},"properties":{"event_id":2728,"grid_col":1873,"grid_row":-6024,"flooded":1,"jrc_perm_water":0,"clear_views":35.0,"observation_valid":1,"processing_scale_m":250,"evidence":"historical_event_window_maximum"}},{"type":"Feature","geometry":{"type":"Polygon","coordinates":[[[74.70906750549796,13.622534891963515],[74.70935641298983,13.622535229729301],[74.70964532048954,13.62253556715952],[74.7099342279971,13.622535904254166],[74.71022313551246,13.622536241013242],[74.71051204303568,13.622536577436748],[74.71080095056668,13.62253691352468],[74.71108985810551,13.622537249277045],[74.71109020121582,13.622254681806588],[74.71109054431835,13.621972114329717],[74.71109088741308,13.621689546846426],[74.71109123050002,13.621406979356719],[74.71109157357914,13.621124411860595],[74.71109191665047,13.620841844358056],[74.71109225971401,13.6205592768491],[74.71109260276975,13.62027670933373],[74.71080369797548,13.620276373639154],[74.710514793189,13.62027603760907],[74.71022588841035,13.62027570124347],[74.70993698363952,13.620275364542357],[74.70964807887651,13.620275027505729],[74.70935917412135,13.620274690133593],[74.70907026937401,13.620274352425943],[74.70878136463453,13.620274014382778],[74.70878101883447,13.620556581840159],[74.70878067302655,13.620839149291124],[74.70878032721076,13.62112171673567],[74.70877998138712,13.621404284173801],[74.70877963555562,13.621686851605517],[74.70877928971625,13.621969419030814],[74.70877894386902,13.622251986449694],[74.70877859801394,13.622534553862158],[74.70906750549796,13.622534891963515]]]},"properties":{"event_id":2728,"grid_col":1874,"grid_row":-6024,"flooded":1,"jrc_perm_water":0,"clear_views":35.0,"observation_valid":1,"processing_scale_m":250,"evidence":"historical_event_window_maximum"}},{"type":"Feature","geometry":{"type":"Polygon","coordinates":[[[74.71137876565213,13.622537584693838],[74.71166767320653,13.622537919775061],[74.71195658076871,13.622538254520714],[74.71224548833868,13.622538588930793],[74.71253439591642,13.622538923005306],[74.7128233035019,13.622539256744243],[74.71311221109514,13.622539590147612],[74.71340111869613,13.622539923215411],[74.71340145906167,13.622257355687426],[74.71340179941949,13.621974788153022],[74.71340213976958,13.6216922206122],[74.71340248011192,13.621409653064964],[74.71340282044653,13.621127085511311],[74.71340316077342,13.62084451795124],[74.71340350109257,13.620561950384758],[74.71340384140397,13.620279382811857],[74.71311493654756,13.620279049801388],[74.71282603169885,13.620278716455402],[74.71253712685791,13.620278382773911],[74.71224822202473,13.620278048756898],[74.71195931719932,13.620277714404377],[74.71167041238168,13.620277379716342],[74.71138150757182,13.620277044692793],[74.71109260276975,13.62027670933373],[74.71109225971401,13.6205592768491],[74.71109191665047,13.620841844358056],[74.71109157357914,13.621124411860595],[74.71109123050002,13.621406979356719],[74.71109088741308,13.621689546846426],[74.71109054431835,13.621972114329717],[74.71109020121582,13.622254681806588],[74.71108985810551,13.622537249277045],[74.71137876565213,13.622537584693838]]]},"properties":{"event_id":2728,"grid_col":1875,"grid_row":-6024,"flooded":1,"jrc_perm_water":0,"clear_views":35.0,"observation_valid":1,"processing_scale_m":250,"evidence":"historical_event_window_maximum"}},{"type":"Feature","geometry":{"type":"Polygon","coordinates":[[[74.70444779448991,13.620268903473844],[74.70473669911068,13.62026924654969],[74.70502560373941,13.620269589290025],[74.7053145083761,13.62026993169485],[74.70560341302075,13.62027027376416],[74.70589231767335,13.62027061549796],[74.70618122233387,13.620270956896247],[74.70647012700233,13.620271297959022],[74.70647047553881,13.619988730553679],[74.70647082406735,13.619706163141924],[74.70647117258798,13.619423595723747],[74.70647152110068,13.619141028299156],[74.70647186960547,13.618858460868148],[74.70647221810232,13.618575893430728],[74.70647256659126,13.618293325986887],[74.70647291507228,13.61801075853663],[74.70618401314786,13.618010417532574],[74.70589511123137,13.618010076193055],[74.70560620932282,13.618009734518084],[74.70531730742222,13.618009392507657],[74.70502840552956,13.618009050161781],[74.70473950364486,13.618008707480444],[74.70445060176814,13.618008364463655],[74.70416169989939,13.618008021111416],[74.70416134867456,13.618290588502754],[74.70416099744173,13.618573155887677],[74.70416064620092,13.618855723266185],[74.70416029495213,13.619138290638277],[74.70415994369536,13.619420858003954],[74.7041595924306,13.619703425363214],[74.70415924115785,13.619985992716053],[74.70415888987714,13.620268560062481],[74.70444779448991,13.620268903473844]]]},"properties":{"event_id":2728,"grid_col":1872,"grid_row":-6023,"flooded":1,"jrc_perm_water":0,"clear_views":35.0,"observation_valid":1,"processing_scale_m":250,"evidence":"historical_event_window_maximum"}},{"type":"Feature","geometry":{"type":"Polygon","coordinates":[[[74.69777905560824,13.410028826047192],[74.69806770697221,13.41002917155857],[74.6983563583443,13.410029516739804],[74.69864500972452,13.410029861590894],[74.69893366111282,13.41003020611184],[74.69922231250924,13.410030550302643],[74.69951096391374,13.4100308941633],[74.69979961532633,13.410031237693815],[74.69979996607515,13.409748665726653],[74.69980031681587,13.409466093753169],[74.69980066754853,13.40918352177336],[74.6998010182731,13.408900949787228],[74.69980136898963,13.408618377794769],[74.69980171969806,13.408335805795984],[74.69980207039842,13.408053233790877],[74.69980242109071,13.407770661779447],[74.69951377237584,13.40777031830893],[74.69922512366907,13.407769974508332],[74.69893647497037,13.407769630377642],[74.6986478262798,13.407769285916867],[74.69835917759731,13.407768941126005],[74.69807052892294,13.407768596005058],[74.69778188025668,13.407768250554023],[74.69749323159857,13.407767904772905],[74.69749287820878,13.408050476724137],[74.69749252481085,13.408333048669043],[74.69749217140478,13.408615620607627],[74.69749181799057,13.408898192539887],[74.69749146456824,13.409180764465818],[74.69749111113777,13.409463336385427],[74.69749075769914,13.409745908298712],[74.6974904042524,13.410028480205671],[74.69777905560824,13.410028826047192]]]},"properties":{"event_id":2728,"grid_col":1869,"grid_row":-5930,"flooded":1,"jrc_perm_water":0,"clear_views":35.0,"observation_valid":1,"processing_scale_m":250,"evidence":"historical_event_window_maximum"}},{"type":"Feature","geometry":{"type":"Polygon","coordinates":[[[74.73472897289652,13.407809785330153],[74.7350176225392,13.407810088529798],[74.73530627218902,13.40781039139935],[74.73559492184593,13.407810693938812],[74.73588357150997,13.40781099614818],[74.7361722211811,13.407811298027458],[74.73646087085935,13.407811599576643],[74.73674952054468,13.407811900795737],[74.73674982806939,13.407529327877532],[74.73675013558704,13.407246754953002],[74.73675044309759,13.406964182022152],[74.73675075060108,13.406681609084979],[74.73675105809747,13.406399036141485],[74.7367513655868,13.406116463191667],[74.73675167306904,13.40583389023553],[74.73675198054418,13.405551317273071],[74.73646333355613,13.405551016106592],[74.73617468657517,13.40555071461008],[74.73588603960128,13.405550412783535],[74.73559739263453,13.405550110626955],[74.73530874567487,13.405549808140341],[74.73502009872234,13.405549505323695],[74.73473145177692,13.405549202177014],[74.73444280483865,13.405548898700296],[74.73444249466644,13.405831471609936],[74.7344421844871,13.406114044513258],[74.7344418743006,13.406396617410257],[74.73444156410697,13.406679190300933],[74.73444125390618,13.406961763185286],[74.73444094369826,13.407244336063322],[74.73444063348319,13.40752690893503],[74.73444032326098,13.407809481800417],[74.73472897289652,13.407809785330153]]]},"properties":{"event_id":2728,"grid_col":1885,"grid_row":-5929,"flooded":1,"jrc_perm_water":0,"clear_views":35.0,"observation_valid":1,"processing_scale_m":250,"evidence":"historical_event_window_maximum"}},{"type":"Feature","geometry":{"type":"Polygon","coordinates":[[[74.72101137946152,13.287983518702077],[74.72129988648263,13.287983834793753],[74.72158839351124,13.287984150558396],[74.72187690054731,13.287984465995999],[74.72216540759086,13.28798478110657],[74.72245391464186,13.287985095890104],[74.72274242170032,13.287985410346606],[74.72303092876622,13.287985724476068],[74.7230312493192,13.2877031492119],[74.72303156986476,13.28742057394146],[74.72303189040286,13.28713799866475],[74.72303221093355,13.286855423381772],[74.7230325314568,13.28657284809252],[74.72303285197262,13.286290272797002],[74.72303317248098,13.286007697495213],[74.72303349298193,13.285725122187152],[74.72274498858697,13.285724808113018],[74.72245648419948,13.285724493711909],[74.72216797981943,13.28572417898382],[74.72187947544683,13.285723863928755],[74.7215909710817,13.28572354854671],[74.72130246672405,13.285723232837688],[74.72101396237389,13.285722916801692],[74.72086311681257,13.285722751390141],[74.7207240711929,13.28693517883729],[74.72072384209785,13.287135476638651],[74.7207235188887,13.287418051859827],[74.72072319567204,13.28770062707473],[74.7207228724479,13.287983202283367],[74.72101137946152,13.287983518702077]]]},"properties":{"event_id":2728,"grid_col":1879,"grid_row":-5876,"flooded":1,"jrc_perm_water":0,"clear_views":34.0,"observation_valid":1,"processing_scale_m":250,"evidence":"historical_event_window_maximum"}}]}
