{"type":"FeatureCollection","features":[{"type":"Feature","geometry":{"type":"Polygon","coordinates":[[[74.93319942336986,13.841969156845643],[74.93348860321686,13.841969235492043],[74.93377778306566,13.841969313797248],[74.93406696291625,13.841969391761253],[74.93435614276865,13.841969469384061],[74.9346453226228,13.841969546665664],[74.93493450247874,13.841969623606078],[74.93522368233643,13.841969700205286],[74.93522376055311,13.841687134316178],[74.93522383876804,13.841404568420563],[74.93522391698123,13.841122002518444],[74.93522399519264,13.84083943660982],[74.93522407340232,13.840556870694694],[74.93522415161024,13.840274304773065],[74.93522422981638,13.839991738844935],[74.93522430802079,13.839709172910299],[74.93493513095633,13.839709096324079],[74.93464595389364,13.83970901939672],[74.93435677683269,13.839708942128215],[74.93406759977354,13.839708864518576],[74.93377842271616,13.83970878656779],[74.93348924566058,13.839708708275868],[74.93320006860681,13.839708629642802],[74.93291089155484,13.839708550668599],[74.93291081055743,13.839991116590042],[74.9329107295582,13.84027368250498],[74.93291064855715,13.840556248413417],[74.93291056755429,13.84083881431535],[74.9329104865496,13.84112138021078],[74.9329104055431,13.841403946099703],[74.93291032453479,13.841686511982124],[74.93291024352466,13.841969077858044],[74.93319942336986,13.841969156845643]]]},"properties":{"event_id":3551,"grid_col":1971,"grid_row":-6121,"flooded":1,"jrc_perm_water":0,"clear_views":38.0,"observation_valid":1,"processing_scale_m":250,"evidence":"historical_event_window_maximum"}},{"type":"Feature","geometry":{"type":"Polygon","coordinates":[[[74.92625981987695,13.839706640107144],[74.92654899688515,13.839706726927577],[74.92683817389532,13.83970681340687],[74.9271273509075,13.839706899545025],[74.92741652792162,13.839706985342035],[74.92770570493774,13.839707070797907],[74.92799488195581,13.839707155912636],[74.9282840589758,13.839707240686232],[74.9282841455573,13.83942467478606],[74.92828423213685,13.839142108879384],[74.92828431871445,13.838859542966208],[74.9282844052901,13.838576977046527],[74.92828449186382,13.838294411120346],[74.9282845784356,13.83801184518766],[74.92828466500542,13.837729279248473],[74.92828475157332,13.837446713302782],[74.92799557734604,13.83744662854357],[74.92770640312068,13.837446543443278],[74.92741722889731,13.8374464580019],[74.9271280546759,13.837446372219437],[74.92683888045644,13.837446286095897],[74.92654970623899,13.837446199631273],[74.92626053202352,13.837446112825566],[74.92597135781006,13.837446025678775],[74.92597126844966,13.837728591609885],[74.92597117908726,13.83801115753449],[74.92597108972285,13.838293723452596],[74.92597100035644,13.838576289364196],[74.92597091098803,13.838858855269294],[74.92597082161761,13.83914142116789],[74.92597073224518,13.83942398705998],[74.92597064287075,13.83970655294557],[74.92625981987695,13.839706640107144]]]},"properties":{"event_id":3551,"grid_col":1968,"grid_row":-6120,"flooded":1,"jrc_perm_water":0,"clear_views":37.0,"observation_valid":1,"processing_scale_m":250,"evidence":"historical_event_window_maximum"}},{"type":"Feature","geometry":{"type":"Polygon","coordinates":[[[74.92857323599777,13.839707325118685],[74.92886241302165,13.839707409209995],[74.92915159004747,13.839707492960162],[74.9294407670752,13.839707576369193],[74.92972994410485,13.839707659437082],[74.93001912113641,13.839707742163831],[74.93030829816985,13.83970782454944],[74.93059747520518,13.83970790659391],[74.93059755899372,13.839425340679618],[74.93059764278038,13.839142774758825],[74.93059772656517,13.83886020883153],[74.93059781034808,13.838577642897732],[74.9305978941291,13.83829507695743],[74.93059797790825,13.838012511010623],[74.9305980616855,13.837729945057319],[74.93059814546088,13.837447379097508],[74.93030897121828,13.837447297066957],[74.93001979697756,13.837447214695322],[74.92973062273873,13.837447131982605],[74.9294414485018,13.837447048928807],[74.9291522742668,13.837446965533925],[74.92886310003371,13.837446881797957],[74.92857392580255,13.837446797720913],[74.92828475157332,13.837446713302782],[74.92828466500542,13.837729279248473],[74.9282845784356,13.83801184518766],[74.92828449186382,13.838294411120346],[74.9282844052901,13.838576977046527],[74.92828431871445,13.838859542966208],[74.92828423213685,13.839142108879384],[74.9282841455573,13.83942467478606],[74.9282840589758,13.839707240686232],[74.92857323599777,13.839707325118685]]]},"properties":{"event_id":3551,"grid_col":1969,"grid_row":-6120,"flooded":1,"jrc_perm_water":0,"clear_views":37.0,"observation_valid":1,"processing_scale_m":250,"evidence":"historical_event_window_maximum"}},{"type":"Feature","geometry":{"type":"Polygon","coordinates":[[[74.94014205235469,13.832928837663658],[74.94043122107286,13.8329289080735],[74.94072038979265,13.832928978142377],[74.94100955851401,13.832929047870284],[74.94129872723701,13.832929117257226],[74.94158789596158,13.832929186303197],[74.94187706468773,13.832929255008201],[74.94216623341546,13.832929323372241],[74.94216630320167,13.832646757238267],[74.94216637298634,13.832364191097788],[74.94216644276942,13.83208162495081],[74.94216651255094,13.831799058797333],[74.9421665823309,13.831516492637355],[74.9421666521093,13.831233926470881],[74.94216672188611,13.830951360297904],[74.94216679166136,13.83066879411843],[74.94187762572487,13.830668725765992],[74.94158845978994,13.830668657072644],[74.94129929385659,13.830668588038389],[74.94101012792484,13.830668518663224],[74.94072096199467,13.830668448947149],[74.94043179606611,13.830668378890161],[74.94014263013918,13.83066830849227],[74.93985346421387,13.830668237753466],[74.9398533916476,13.830950803921136],[74.9398533190797,13.831233370082309],[74.93985324651018,13.831515936236979],[74.93985317393903,13.831798502385155],[74.93985310136625,13.832081068526826],[74.93985302879184,13.832363634662],[74.93985295621582,13.832646200790675],[74.93985288363815,13.83292876691285],[74.94014205235469,13.832928837663658]]]},"properties":{"event_id":3551,"grid_col":1974,"grid_row":-6117,"flooded":1,"jrc_perm_water":0,"clear_views":38.0,"observation_valid":1,"processing_scale_m":250,"evidence":"historical_event_window_maximum"}},{"type":"Feature","geometry":{"type":"Polygon","coordinates":[[[75.03728164983744,13.699561330233822],[75.0375706548311,13.699561286520323],[75.03785965982377,13.69956124246927],[75.0381486648154,13.699561198080662],[75.038437669806,13.699561153354496],[75.03872667479557,13.69956110829078],[75.03901567978409,13.699561062889503],[75.03930468477155,13.699561017150671],[75.03930463781889,13.699278447884604],[75.0393045908673,13.69899587861209],[75.03930454391677,13.698713309333138],[75.03930449696729,13.69843074004774],[75.03930445001888,13.698148170755907],[75.03930440307154,13.697865601457627],[75.03930435612526,13.69758303215291],[75.03930430918003,13.697300462841742],[75.03901530695427,13.697300508572743],[75.03872630472745,13.697300553966246],[75.03843730249959,13.697300599022249],[75.03814830027068,13.697300643740757],[75.03785929804074,13.697300688121762],[75.03757029580977,13.697300732165273],[75.0372812935778,13.697300775871287],[75.03699229134483,13.697300819239798],[75.03699233552858,13.697583388558591],[75.03699237971331,13.69786595787094],[75.03699242389905,13.698148527176848],[75.03699246808578,13.698431096476316],[75.03699251227354,13.698713665769338],[75.03699255646227,13.698996235055922],[75.036992600652,13.699278804336064],[75.03699264484274,13.699561373609761],[75.03728164983744,13.699561330233822]]]},"properties":{"event_id":3551,"grid_col":2016,"grid_row":-6058,"flooded":1,"jrc_perm_water":0,"clear_views":37.0,"observation_valid":1,"processing_scale_m":250,"evidence":"historical_event_window_maximum"}},{"type":"Feature","geometry":{"type":"Polygon","coordinates":[[[75.03958726706324,13.661131491934599],[75.03987622516763,13.661131445655741],[75.04016518327093,13.661131399040308],[75.04045414137316,13.661131352088299],[75.04074309947428,13.661131304799724],[75.04103205757434,13.66113125717457],[75.04132101567326,13.661131209212844],[75.04160997377106,13.661131160914545],[75.04160992420937,13.660848590781564],[75.04160987464881,13.660566020642158],[75.04160982508935,13.660283450496323],[75.04160977553104,13.660000880344063],[75.04160972597384,13.65971831018538],[75.04160967641778,13.65943574002027],[75.04160962686282,13.659153169848738],[75.04160957730899,13.658870599670777],[75.04132062196439,13.658870647960784],[75.04103166661866,13.658870695914278],[75.04074271127186,13.658870743531255],[75.04045375592392,13.658870790811715],[75.0401648005749,13.658870837755662],[75.0398758452248,13.658870884363091],[75.03958688987362,13.658870930634006],[75.03929793452136,13.658870976568405],[75.0392979813222,13.659153546754453],[75.03929802812411,13.659436116934074],[75.03929807492706,13.659718687107272],[75.03929812173108,13.660001257274045],[75.03929816853616,13.660283827434395],[75.0392982153423,13.660566397588319],[75.03929826214952,13.660848967735811],[75.03929830895778,13.661131537876887],[75.03958726706324,13.661131491934599]]]},"properties":{"event_id":3551,"grid_col":2017,"grid_row":-6041,"flooded":1,"jrc_perm_water":0,"clear_views":38.0,"observation_valid":1,"processing_scale_m":250,"evidence":"historical_event_window_maximum"}},{"type":"Feature","geometry":{"type":"Polygon","coordinates":[[[75.04883206516836,13.652087597533155],[75.04912101222459,13.652087540523128],[75.0494099592795,13.65208748317676],[75.04969890633306,13.652087425494049],[75.0499878533853,13.652087367474998],[75.0502768004362,13.652087309119601],[75.0505657474857,13.652087250427867],[75.05085469453387,13.652087191399788],[75.05085463400242,13.651804621098227],[75.05085457347236,13.651522050790247],[75.05085451294366,13.651239480475844],[75.05085445241635,13.650956910155019],[75.05085439189038,13.650674339827773],[75.05085433136581,13.650391769494105],[75.0508542708426,13.650109199154018],[75.0508542103208,13.649826628807507],[75.05056526602382,13.649826687825446],[75.05027632172552,13.649826746507102],[75.04998737742584,13.64982680485247],[75.04969843312482,13.649826862861557],[75.04940948882246,13.649826920534357],[75.04912054451876,13.649826977870875],[75.04883160021373,13.649827034871109],[75.04854265590738,13.649827091535059],[75.04854271367823,13.650109661891506],[75.04854277145039,13.650392232241531],[75.04854282922383,13.650674802585137],[75.0485428869986,13.650957372922319],[75.0485429447747,13.651239943253083],[75.0485430025521,13.651522513577422],[75.04854306033079,13.651805083895342],[75.0485431181108,13.652087654206841],[75.04883206516836,13.652087597533155]]]},"properties":{"event_id":3551,"grid_col":2021,"grid_row":-6037,"flooded":1,"jrc_perm_water":0,"clear_views":38.0,"observation_valid":1,"processing_scale_m":250,"evidence":"historical_event_window_maximum"}},{"type":"Feature","geometry":{"type":"Polygon","coordinates":[[[75.05114364158065,13.65208713203537],[75.05143258862606,13.652087072334607],[75.05172153567007,13.652087012297505],[75.05201048271269,13.652086951924057],[75.0522994297539,13.65208689121427],[75.05258837679371,13.652086830168141],[75.05287732383208,13.652086768785669],[75.05316627086904,13.652086707066854],[75.05316620758617,13.651804136775697],[75.05316614430474,13.651521566478113],[75.05316608102474,13.651238996174111],[75.05316601774618,13.650956425863685],[75.05316595446907,13.650673855546838],[75.05316589119337,13.650391285223572],[75.05316582791912,13.65010871489388],[75.05316576464631,13.649826144557771],[75.05287682036055,13.649826206265985],[75.05258787607337,13.649826267637911],[75.05229893178478,13.649826328673555],[75.05200998749478,13.649826389372913],[75.05172104320337,13.64982644973599],[75.05143209891055,13.649826509762779],[75.05114315461635,13.649826569453285],[75.0508542103208,13.649826628807507],[75.0508542708426,13.650109199154018],[75.05085433136581,13.650391769494105],[75.05085439189038,13.650674339827773],[75.05085445241635,13.650956910155019],[75.05085451294366,13.651239480475844],[75.05085457347236,13.651522050790247],[75.05085463400242,13.651804621098227],[75.05085469453387,13.652087191399788],[75.05114364158065,13.65208713203537]]]},"properties":{"event_id":3551,"grid_col":2022,"grid_row":-6037,"flooded":1,"jrc_perm_water":0,"clear_views":38.0,"observation_valid":1,"processing_scale_m":250,"evidence":"historical_event_window_maximum"}},{"type":"Feature","geometry":{"type":"Polygon","coordinates":[[[75.05345521790456,13.6520866450117],[75.05374416493862,13.652086582620207],[75.05403311197125,13.652086519892366],[75.05432205900242,13.652086456828185],[75.05461100603212,13.652086393427663],[75.05489995306034,13.652086329690798],[75.05518890008709,13.652086265617593],[75.05522955153164,13.652086256555927],[75.05506172281531,13.649825731264468],[75.05489943033037,13.649825767246538],[75.05461048605335,13.649825830972457],[75.05432154177485,13.649825894362088],[75.0540325974949,13.649825957415434],[75.05374365321349,13.6498260201325],[75.05345470893062,13.649826082513275],[75.05316576464631,13.649826144557771],[75.05316582791912,13.65010871489388],[75.05316589119337,13.650391285223572],[75.05316595446907,13.650673855546838],[75.05316601774618,13.650956425863685],[75.05316608102474,13.651238996174111],[75.05316614430474,13.651521566478113],[75.05316620758617,13.651804136775697],[75.05316627086904,13.652086707066854],[75.05345521790456,13.6520866450117]]]},"properties":{"event_id":3551,"grid_col":2023,"grid_row":-6037,"flooded":1,"jrc_perm_water":0,"clear_views":38.0,"observation_valid":1,"processing_scale_m":250,"evidence":"historical_event_window_maximum"}},{"type":"Feature","geometry":{"type":"Polygon","coordinates":[[[75.05114266774046,13.647566006460275],[75.05143160928395,13.64756594678002],[75.05172055082605,13.647565886763543],[75.05200949236675,13.647565826410837],[75.05229843390605,13.647565765721906],[75.05258737544393,13.647565704696747],[75.0528763169804,13.647565643335367],[75.05316525851545,13.647565581637757],[75.05316519525554,13.647283011243868],[75.05316513199709,13.647000440843554],[75.05316506874006,13.646717870436822],[75.05316500548447,13.64643530002367],[75.05316494223031,13.6461527296041],[75.05316487897758,13.64587015917811],[75.0531648157263,13.6455875887457],[75.05316475247646,13.645305018306873],[75.05287581369161,13.645305079993884],[75.05258687490536,13.645305141344723],[75.05229793611768,13.645305202359392],[75.0520089973286,13.645305263037896],[75.0517200585381,13.645305323380226],[75.0514311197462,13.645305383386393],[75.05114218095292,13.64530544305639],[75.05085324215827,13.64530550239022],[75.05085330265813,13.645588072839443],[75.05085336315935,13.645870643282253],[75.05085342366196,13.646153213718641],[75.05085348416594,13.646435784148613],[75.05085354467128,13.646718354572164],[75.05085360517802,13.647000924989294],[75.05085366568612,13.647283495400005],[75.05085372619558,13.647566065804297],[75.05114266774046,13.647566006460275]]]},"properties":{"event_id":3551,"grid_col":2022,"grid_row":-6035,"flooded":1,"jrc_perm_water":0,"clear_views":38.0,"observation_valid":1,"processing_scale_m":250,"evidence":"historical_event_window_maximum"}},{"type":"Feature","geometry":{"type":"Polygon","coordinates":[[[75.05345420004905,13.647565519603921],[75.05374314158121,13.64756545723386],[75.05403208311192,13.64756539452757],[75.05432102464117,13.647565331485055],[75.05460996616895,13.647565268106318],[75.05489389406364,13.647565205496912],[75.05472606526655,13.64530467911766],[75.05460944637892,13.645304704829307],[75.05432050760135,13.645304768197157],[75.05403156882231,13.645304831228838],[75.0537426300418,13.645304893924353],[75.05345369125985,13.645304956283697],[75.05316475247646,13.645305018306873],[75.0531648157263,13.6455875887457],[75.05316487897758,13.64587015917811],[75.05316494223031,13.6461527296041],[75.05316500548447,13.64643530002367],[75.05316506874006,13.646717870436822],[75.05316513199709,13.647000440843554],[75.05316519525554,13.647283011243868],[75.05316525851545,13.647565581637757],[75.05345420004905,13.647565519603921]]]},"properties":{"event_id":3551,"grid_col":2023,"grid_row":-6035,"flooded":1,"jrc_perm_water":0,"clear_views":38.0,"observation_valid":1,"processing_scale_m":250,"evidence":"historical_event_window_maximum"}},{"type":"Feature","geometry":{"type":"Polygon","coordinates":[[[75.04189534153694,13.640786046363848],[75.04218427487163,13.64078599746806],[75.04247320820517,13.640785948236221],[75.04276214153754,13.640785898668327],[75.04305107486879,13.640785848764379],[75.04334000819885,13.640785798524378],[75.04362894152776,13.640785747948323],[75.04391787485548,13.640785697036218],[75.04391782262576,13.640503126449463],[75.0439177703972,13.640220555856294],[75.04391771816985,13.639937985256708],[75.04391766594367,13.639655414650706],[75.04391761371868,13.639372844038288],[75.0439175614949,13.639090273419448],[75.04391750927226,13.638807702794198],[75.04391745705082,13.638525132162531],[75.04362852647182,13.638525183065886],[75.04333959589164,13.638525233633246],[75.04305066531028,13.638525283864608],[75.04276173472775,13.638525333759977],[75.04247280414407,13.63852538331935],[75.04218387355925,13.638525432542727],[75.04189494297329,13.638525481430108],[75.0416060123862,13.638525529981496],[75.04160606185913,13.638808100621711],[75.0416061113332,13.639090671255518],[75.04160616080837,13.639373241882902],[75.04160621028468,13.639655812503868],[75.04160625976212,13.639938383118425],[75.04160630924066,13.64022095372656],[75.04160635872034,13.640503524328281],[75.04160640820115,13.640786094923584],[75.04189534153694,13.640786046363848]]]},"properties":{"event_id":3551,"grid_col":2018,"grid_row":-6032,"flooded":1,"jrc_perm_water":0,"clear_views":38.0,"observation_valid":1,"processing_scale_m":250,"evidence":"historical_event_window_maximum"}},{"type":"Feature","geometry":{"type":"Polygon","coordinates":[[[74.69258079669363,13.63720855943622],[74.69258116219345,13.636925992776543],[74.69258152768498,13.636643426110444],[74.6925818931682,13.636360859437922],[74.69258225864313,13.636078292758972],[74.69229333514195,13.636077935161232],[74.69200441164908,13.63607757722758],[74.6917154881645,13.636077218958011],[74.69142656468827,13.636076860352528],[74.69113764122037,13.63607650141113],[74.69084871776079,13.63607614213382],[74.69055979430956,13.636075782520592],[74.6902708708667,13.636075422571455],[74.69027050264397,13.636357989188705],[74.69027013441288,13.636640555799534],[74.69026976617343,13.636923122403937],[74.6902694014286,13.637203001086561],[74.69258048220482,13.637451684135394],[74.69258079669363,13.63720855943622]]]},"properties":{"event_id":3551,"grid_col":1866,"grid_row":-6031,"flooded":1,"jrc_perm_water":0,"clear_views":38.0,"observation_valid":1,"processing_scale_m":250,"evidence":"historical_event_window_maximum"}},{"type":"Feature","geometry":{"type":"Polygon","coordinates":[[[75.04189494297329,13.638525481430108],[75.04218387355925,13.638525432542727],[75.04247280414407,13.63852538331935],[75.04276173472775,13.638525333759977],[75.04305066531028,13.638525283864608],[75.04333959589164,13.638525233633246],[75.04362852647182,13.638525183065886],[75.04391745705082,13.638525132162531],[75.04391740483058,13.638242561524446],[75.04391735261153,13.637959990879947],[75.04391730039364,13.637677420229032],[75.04391724817697,13.637394849571704],[75.04391719596146,13.637112278907958],[75.04391714374715,13.636829708237796],[75.04391709153401,13.636547137561221],[75.04391703932207,13.636264566878227],[75.04362811149127,13.63626461777283],[75.0433391836593,13.636264668331497],[75.04305025582615,13.636264718554223],[75.04276132799183,13.636264768441013],[75.04247240015637,13.636264817991865],[75.04218347231976,13.63626486720678],[75.04189454448202,13.636264916085755],[75.04160561664312,13.636264964628795],[75.04160566610707,13.636547535320338],[75.04160571557216,13.63683010600546],[75.04160576503836,13.637112676684174],[75.04160581450567,13.63739524735647],[75.04160586397411,13.637677818022345],[75.04160591344369,13.637960388681812],[75.04160596291437,13.638242959334864],[75.0416060123862,13.638525529981496],[75.04189494297329,13.638525481430108]]]},"properties":{"event_id":3551,"grid_col":2018,"grid_row":-6031,"flooded":1,"jrc_perm_water":0,"clear_views":38.0,"observation_valid":1,"processing_scale_m":250,"evidence":"historical_event_window_maximum"}},{"type":"Feature","geometry":{"type":"Polygon","coordinates":[[[75.04420638762866,13.638525080923182],[75.04449531820529,13.638525029347836],[75.04478424878072,13.638524977436493],[75.04507317935494,13.638524925189161],[75.04536210992795,13.638524872605824],[75.04565104049973,13.638524819686499],[75.04593997107028,13.638524766431178],[75.0462289016396,13.638524712839859],[75.04622884667091,13.638242142210785],[75.04622879170348,13.637959571575298],[75.0462287367373,13.637677000933396],[75.04622868177238,13.637394430285077],[75.0462286268087,13.637111859630346],[75.04622857184626,13.636829288969198],[75.04622851688507,13.636546718301632],[75.04622846192514,13.636264147627653],[75.04593953410404,13.636264201209755],[75.0456506062817,13.636264254455922],[75.04536167845814,13.636264307366151],[75.04507275063332,13.636264359940443],[75.04478382280733,13.636264412178795],[75.0444948949801,13.636264464081208],[75.04420596715168,13.636264515647687],[75.04391703932207,13.636264566878227],[75.04391709153401,13.636547137561221],[75.04391714374715,13.636829708237796],[75.04391719596146,13.637112278907958],[75.04391724817697,13.637394849571704],[75.04391730039364,13.637677420229032],[75.04391735261153,13.637959990879947],[75.04391740483058,13.638242561524446],[75.04391745705082,13.638525132162531],[75.04420638762866,13.638525080923182]]]},"properties":{"event_id":3551,"grid_col":2019,"grid_row":-6031,"flooded":1,"jrc_perm_water":0,"clear_views":38.0,"observation_valid":1,"processing_scale_m":250,"evidence":"historical_event_window_maximum"}},{"type":"Feature","geometry":{"type":"Polygon","coordinates":[[[75.04651783220766,13.638524658912544],[75.04680676277445,13.638524604649238],[75.04709569334001,13.638524550049933],[75.04738462390428,13.638524495114636],[75.04767355446727,13.638524439843339],[75.04796248502898,13.638524384236048],[75.04825141558939,13.638524328292764],[75.04854034614849,13.638524272013484],[75.04854028843138,13.638241701393888],[75.04854023071559,13.637959130767873],[75.0485401730011,13.637676560135446],[75.04854011528792,13.637393989496601],[75.04854005757606,13.637111418851342],[75.04853999986551,13.636828848199665],[75.04853994215627,13.636546277541576],[75.04853988444833,13.636263706877068],[75.04825095663743,13.636263763146674],[75.04796202882524,13.636263819080343],[75.04767310101174,13.63626387467807],[75.04738417319695,13.636263929939863],[75.0470952453809,13.636263984865717],[75.04680631756356,13.636264039455634],[75.04651738974498,13.636264093709611],[75.04622846192514,13.636264147627653],[75.04622851688507,13.636546718301632],[75.04622857184626,13.636829288969198],[75.0462286268087,13.637111859630346],[75.04622868177238,13.637394430285077],[75.0462287367373,13.637677000933396],[75.04622879170348,13.637959571575298],[75.04622884667091,13.638242142210785],[75.0462289016396,13.638524712839859],[75.04651783220766,13.638524658912544]]]},"properties":{"event_id":3551,"grid_col":2020,"grid_row":-6031,"flooded":1,"jrc_perm_water":0,"clear_views":38.0,"observation_valid":1,"processing_scale_m":250,"evidence":"historical_event_window_maximum"}},{"type":"Feature","geometry":{"type":"Polygon","coordinates":[[[75.05114072112053,13.63852375038017],[75.0514296516662,13.638523690740936],[75.05171858221046,13.638523630765707],[75.05200751275332,13.638523570454483],[75.05229644329478,13.638523509807266],[75.05258537383483,13.63852344882405],[75.05287430437346,13.63852338750484],[75.05316323491067,13.638523325849636],[75.0531631716967,13.638240755250374],[75.05316310848417,13.637958184644694],[75.05316304527307,13.637675614032602],[75.05316298206341,13.637393043414095],[75.05316291885518,13.63711047278917],[75.05316285564841,13.63682790215783],[75.05316279244305,13.636545331520074],[75.05316272923913,13.636262760875903],[75.05287380145012,13.636262822520507],[75.05258487365971,13.636262883829174],[75.05229594586787,13.636262944801903],[75.05200701807462,13.636263005438696],[75.05171809027996,13.636263065739548],[75.0514291624839,13.636263125704467],[75.05114023468647,13.636263185333446],[75.05085130688765,13.636263244626488],[75.05085136734358,13.636545815281059],[75.05085142780088,13.63682838592921],[75.05085148825955,13.637110956570947],[75.05085154871959,13.637393527206271],[75.05085160918102,13.637676097835179],[75.0508516696438,13.63795866845767],[75.05085173010798,13.638241239073748],[75.05085179057352,13.638523809683408],[75.05114072112053,13.63852375038017]]]},"properties":{"event_id":3551,"grid_col":2022,"grid_row":-6031,"flooded":1,"jrc_perm_water":0,"clear_views":38.0,"observation_valid":1,"processing_scale_m":250,"evidence":"historical_event_window_maximum"}},{"type":"Feature","geometry":{"type":"Polygon","coordinates":[[[74.71368458489455,13.627061335637183],[74.7139734980016,13.627061668148269],[74.71426241111635,13.627062000323665],[74.71455132423883,13.627062332163373],[74.714840237369,13.627062663667397],[74.71512915050687,13.627062994835736],[74.71541806365244,13.627063325668384],[74.71570697680568,13.627063656165348],[74.71570731454925,13.626781088682975],[74.71570765228512,13.626498521194183],[74.71570799001333,13.626215953698974],[74.71570832773385,13.625933386197348],[74.71570866544671,13.625650818689303],[74.7157090031519,13.625368251174836],[74.71570934084943,13.625085683653955],[74.71570967853927,13.624803116126657],[74.71542076813157,13.624802785686562],[74.71513185773156,13.624802454910837],[74.71484294733924,13.624802123799482],[74.7145540369546,13.624801792352502],[74.71426512657769,13.62480146056989],[74.71397621620847,13.624801128451653],[74.71368730584697,13.624800795997782],[74.71339839549321,13.624800463208283],[74.71339805505805,13.625083030678514],[74.71339771461514,13.625365598142325],[74.71339737416449,13.625648165599719],[74.71339703370612,13.625930733050696],[74.71339669324,13.626213300495253],[74.71339635276615,13.626495867933393],[74.71339601228456,13.626778435365113],[74.71339567179524,13.627061002790414],[74.71368458489455,13.627061335637183]]]},"properties":{"event_id":3551,"grid_col":1876,"grid_row":-6026,"flooded":1,"jrc_perm_water":0,"clear_views":38.0,"observation_valid":1,"processing_scale_m":250,"evidence":"historical_event_window_maximum"}},{"type":"Feature","geometry":{"type":"Polygon","coordinates":[[[74.71368730584697,13.624800795997782],[74.71397621620847,13.624801128451653],[74.71426512657769,13.62480146056989],[74.7145540369546,13.624801792352502],[74.71484294733924,13.624802123799482],[74.71513185773156,13.624802454910837],[74.71542076813157,13.624802785686562],[74.71570967853927,13.624803116126657],[74.71571001622144,13.624520548592937],[74.71571035389593,13.624237981052802],[74.71571069156275,13.62395541350625],[74.71571102922191,13.623672845953283],[74.71571136687338,13.623390278393893],[74.71571170451718,13.62310771082809],[74.71571204215331,13.622825143255872],[74.71571237978176,13.622542575677231],[74.71542347211913,13.622542245294005],[74.71513456446417,13.622541914575203],[74.71484565681689,13.622541583520833],[74.7145567491773,13.62254125213089],[74.71426784154544,13.62254092040538],[74.71397893392127,13.622540588344291],[74.71369002630483,13.622540255947637],[74.71340111869613,13.622539923215411],[74.71340077832284,13.62282249073698],[74.7134004379418,13.623105058252133],[74.71340009755303,13.623387625760868],[74.71339975715655,13.623670193263187],[74.71339941675232,13.623952760759085],[74.71339907634035,13.62423532824857],[74.71339873592065,13.624517895731637],[74.71339839549321,13.624800463208283],[74.71368730584697,13.624800795997782]]]},"properties":{"event_id":3551,"grid_col":1876,"grid_row":-6025,"flooded":1,"jrc_perm_water":0,"clear_views":38.0,"observation_valid":1,"processing_scale_m":250,"evidence":"historical_event_window_maximum"}},{"type":"Feature","geometry":{"type":"Polygon","coordinates":[[[74.70675624584631,13.622532177756687],[74.70704515327516,13.622532518207036],[74.70733406071189,13.622532858321817],[74.70762296815654,13.622533198101024],[74.70791187560907,13.622533537544662],[74.70820078306949,13.622533876652733],[74.70848969053777,13.62253421542523],[74.70877859801394,13.622534553862158],[74.70877894386902,13.622251986449694],[74.70877928971625,13.621969419030814],[74.70877963555562,13.621686851605517],[74.70877998138712,13.621404284173801],[74.70878032721076,13.62112171673567],[74.70878067302655,13.620839149291124],[74.70878101883447,13.620556581840159],[74.70878136463453,13.620274014382778],[74.70849245990293,13.620273676004102],[74.70820355517918,13.620273337289914],[74.7079146504633,13.620272998240216],[74.70762574575531,13.620272658854999],[74.70733684105521,13.620272319134274],[74.70704793636301,13.620271979078035],[74.70675903167871,13.620271638686285],[74.70647012700233,13.620271297959022],[74.70646977845794,13.620553865357946],[74.70646942990564,13.62083643275046],[74.7064690813454,13.621119000136552],[74.70646873277724,13.621401567516232],[74.70646838420116,13.62168413488949],[74.70646803561716,13.621966702256332],[74.70646768702524,13.622249269616761],[74.70646733842538,13.622531836970769],[74.70675624584631,13.622532177756687]]]},"properties":{"event_id":3551,"grid_col":1873,"grid_row":-6024,"flooded":1,"jrc_perm_water":0,"clear_views":38.0,"observation_valid":1,"processing_scale_m":250,"evidence":"historical_event_window_maximum"}},{"type":"Feature","geometry":{"type":"Polygon","coordinates":[[[74.71137876565213,13.622537584693838],[74.71166767320653,13.622537919775061],[74.71195658076871,13.622538254520714],[74.71224548833868,13.622538588930793],[74.71253439591642,13.622538923005306],[74.7128233035019,13.622539256744243],[74.71311221109514,13.622539590147612],[74.71340111869613,13.622539923215411],[74.71340145906167,13.622257355687426],[74.71340179941949,13.621974788153022],[74.71340213976958,13.6216922206122],[74.71340248011192,13.621409653064964],[74.71340282044653,13.621127085511311],[74.71340316077342,13.62084451795124],[74.71340350109257,13.620561950384758],[74.71340384140397,13.620279382811857],[74.71311493654756,13.620279049801388],[74.71282603169885,13.620278716455402],[74.71253712685791,13.620278382773911],[74.71224822202473,13.620278048756898],[74.71195931719932,13.620277714404377],[74.71167041238168,13.620277379716342],[74.71138150757182,13.620277044692793],[74.71109260276975,13.62027670933373],[74.71109225971401,13.6205592768491],[74.71109191665047,13.620841844358056],[74.71109157357914,13.621124411860595],[74.71109123050002,13.621406979356719],[74.71109088741308,13.621689546846426],[74.71109054431835,13.621972114329717],[74.71109020121582,13.622254681806588],[74.71108985810551,13.622537249277045],[74.71137876565213,13.622537584693838]]]},"properties":{"event_id":3551,"grid_col":1875,"grid_row":-6024,"flooded":1,"jrc_perm_water":0,"clear_views":38.0,"observation_valid":1,"processing_scale_m":250,"evidence":"historical_event_window_maximum"}},{"type":"Feature","geometry":{"type":"Polygon","coordinates":[[[74.70444779448991,13.620268903473844],[74.70473669911068,13.62026924654969],[74.70502560373941,13.620269589290025],[74.7053145083761,13.62026993169485],[74.70560341302075,13.62027027376416],[74.70589231767335,13.62027061549796],[74.70618122233387,13.620270956896247],[74.70647012700233,13.620271297959022],[74.70647047553881,13.619988730553679],[74.70647082406735,13.619706163141924],[74.70647117258798,13.619423595723747],[74.70647152110068,13.619141028299156],[74.70647186960547,13.618858460868148],[74.70647221810232,13.618575893430728],[74.70647256659126,13.618293325986887],[74.70647291507228,13.61801075853663],[74.70618401314786,13.618010417532574],[74.70589511123137,13.618010076193055],[74.70560620932282,13.618009734518084],[74.70531730742222,13.618009392507657],[74.70502840552956,13.618009050161781],[74.70473950364486,13.618008707480444],[74.70445060176814,13.618008364463655],[74.70416169989939,13.618008021111416],[74.70416134867456,13.618290588502754],[74.70416099744173,13.618573155887677],[74.70416064620092,13.618855723266185],[74.70416029495213,13.619138290638277],[74.70415994369536,13.619420858003954],[74.7041595924306,13.619703425363214],[74.70415924115785,13.619985992716053],[74.70415888987714,13.620268560062481],[74.70444779448991,13.620268903473844]]]},"properties":{"event_id":3551,"grid_col":1872,"grid_row":-6023,"flooded":1,"jrc_perm_water":0,"clear_views":38.0,"observation_valid":1,"processing_scale_m":250,"evidence":"historical_event_window_maximum"}},{"type":"Feature","geometry":{"type":"Polygon","coordinates":[[[74.72101137946152,13.287983518702077],[74.72129988648263,13.287983834793753],[74.72158839351124,13.287984150558396],[74.72187690054731,13.287984465995999],[74.72216540759086,13.28798478110657],[74.72245391464186,13.287985095890104],[74.72274242170032,13.287985410346606],[74.72303092876622,13.287985724476068],[74.7230312493192,13.2877031492119],[74.72303156986476,13.28742057394146],[74.72303189040286,13.28713799866475],[74.72303221093355,13.286855423381772],[74.7230325314568,13.28657284809252],[74.72303285197262,13.286290272797002],[74.72303317248098,13.286007697495213],[74.72303349298193,13.285725122187152],[74.72274498858697,13.285724808113018],[74.72245648419948,13.285724493711909],[74.72216797981943,13.28572417898382],[74.72187947544683,13.285723863928755],[74.7215909710817,13.28572354854671],[74.72130246672405,13.285723232837688],[74.72101396237389,13.285722916801692],[74.72086311681257,13.285722751390141],[74.7207240711929,13.28693517883729],[74.72072384209785,13.287135476638651],[74.7207235188887,13.287418051859827],[74.72072319567204,13.28770062707473],[74.7207228724479,13.287983202283367],[74.72101137946152,13.287983518702077]]]},"properties":{"event_id":3551,"grid_col":1879,"grid_row":-5876,"flooded":1,"jrc_perm_water":0,"clear_views":38.0,"observation_valid":1,"processing_scale_m":250,"evidence":"historical_event_window_maximum"}}]}
