{"type":"Feature","properties":{"shapeGroup":"IND","shapeID":"76128533B4839184447445","shapeName":"Udupi","shapeType":"ADM2"},"geometry":{"type":"MultiPolygon","coordinates":[[[[74.6955031161838,13.421408140516922],[74.69627903819712,13.415111887248392],[74.69708166312306,13.416668075109882],[74.69622106970169,13.417470779245578],[74.6961987397675,13.419999029457912],[74.6955031161838,13.421408140516922]]],[[[74.69380870523895,13.446958797598414],[74.69437946548302,13.43058050942717],[74.69503052282627,13.425287578719637],[74.69660898484884,13.426250725264385],[74.69789321613149,13.427472522195862],[74.69789321613149,13.429974090475918],[74.69660898484884,13.431249382103466],[74.69496808788422,13.430388753121798],[74.6945578388302,13.430776661910164],[74.69458007966003,13.442499710950619],[74.69541844069899,13.44330681502018],[74.69541844069899,13.444970034714101],[74.69622106970168,13.445835124033364],[74.69622106970169,13.44969663787014],[74.69380870523895,13.446958797598414]]],[[[75.08097013628253,13.34563020141557],[75.08990171027074,13.351890705835102],[75.09218921317168,13.363301585335915],[75.10038954054379,13.359649566040485],[75.1033815704122,13.362472217471487],[75.11362858426544,13.359190313694691],[75.12796012288389,13.37027117072023],[75.13056875451376,13.379898376113156],[75.12906155632106,13.388691722442823],[75.13308808359301,13.393150801433519],[75.14245221288051,13.389788668707846],[75.14785217703538,13.398778211568919],[75.14135078381894,13.408980577935607],[75.14498943433472,13.411361773207348],[75.14666162300868,13.419932144951973],[75.15171825345021,13.422201870184928],[75.15554860746552,13.450089064954291],[75.15429113151225,13.45589032195664],[75.14704953831587,13.456639494660271],[75.14112782477967,13.464340313034677],[75.1312598569551,13.465290153633278],[75.12808056470129,13.470930884599195],[75.08547826776469,13.534771823583938],[75.08735113066855,13.569031134887044],[75.08892965413803,13.569691116209052],[75.07602941044807,13.593618617479171],[75.06147938245844,13.613800530179947],[75.05350209470647,13.628818725655243],[75.0565521343795,13.669900442608437],[75.03600900927813,13.708739221246645],[75.01888165007432,13.732680127229951],[75.00596809073397,13.7367780445068],[74.99528853117218,13.748050687152034],[74.98402932070869,13.750868789443645],[74.9645519486242,13.77010987285638],[74.96383845612505,13.79686892683533],[74.94952032339498,13.843109755842127],[74.9446018694643,13.848028194962241],[74.93075191611982,13.84591903154422],[74.91907799764179,13.841290441881839],[74.91542155379136,13.85836877815963],[74.90167858456415,13.866248024568621],[74.88980845683503,13.868968076743446],[74.87969077320156,13.868638152984229],[74.87470999212344,13.859889416047134],[74.86876147998073,13.860758862102168],[74.86403039102467,13.865730817120644],[74.86020897966523,13.88152046822747],[74.84755850041635,13.895798523762494],[74.83732042010898,13.902612010947422],[74.82284165169845,13.909849168955343],[74.81514078461115,13.908399957827555],[74.80302994043758,13.91173980160588],[74.79581064364051,13.90798973593283],[74.79273831954279,13.915338268204959],[74.7772205982411,13.917269099319741],[74.76477977735196,13.916060706078374],[74.75691836909368,13.912698480343174],[74.74696116958151,13.916528912556284],[74.73699061027725,13.915351640565463],[74.71803940155242,13.90803875452568],[74.71209994399062,13.930080085819176],[74.69920869903486,13.930940721680967],[74.69397814709573,13.937227988586379],[74.70232114019353,13.94082203669756],[74.70192868297806,13.951349963621064],[74.69790214801618,13.957829085210335],[74.68937189435643,13.960901426845075],[74.68651807897835,13.966519861292717],[74.67809927187737,13.97253074516807],[74.66865047378482,13.985488903751603],[74.65868879013844,13.977301988101303],[74.64787998156271,13.960629398938957],[74.65303913732765,13.951399031592064],[74.65068030256337,13.94430011872339],[74.64128940135596,13.942021544282253],[74.63286165879646,13.94948160701311],[74.62615076251838,13.939850014447599],[74.62264143029773,13.943328032589067],[74.60848828092952,13.942431785313529],[74.60304815005968,13.936269351919496],[74.59531161500846,13.935899195152945],[74.58262990665376,13.926111453623191],[74.58441354606673,13.922914338975685],[74.58583152446522,13.922914314231232],[74.58958613914477,13.919137461079334],[74.58911343167306,13.91788891357366],[74.58583152446522,13.92119305660736],[74.58543915719905,13.921077147920403],[74.58793179139158,13.916609120557657],[74.59187806829107,13.904248483904448],[74.59512875878634,13.888570293941786],[74.6017817940338,13.874591006579347],[74.60640140150825,13.86821007661986],[74.62034052825788,13.81788910865573],[74.62293130834571,13.802839631676777],[74.62460345905032,13.796668229943904],[74.62622206895975,13.796668272682085],[74.62622206895975,13.795000497447385],[74.62541946767838,13.794139921264787],[74.62541946767838,13.79365389660363],[74.62900907317456,13.780410364170955],[74.63437779313726,13.751640227681776],[74.64654221190818,13.679380498199667],[74.65376146923164,13.664540642714533],[74.66185030552414,13.655011503597198],[74.6667018150079,13.638410262719134],[74.66836951739025,13.636657814867334],[74.66958687263904,13.636666810966847],[74.66874856274437,13.638307683988463],[74.6720259343028,13.640862791695412],[74.6745542921539,13.645000873391297],[74.67461226804934,13.648305016529916],[74.67372047331428,13.649165669746461],[74.67372047331428,13.651640466521798],[74.6720794444385,13.654971366778451],[74.67205720066126,13.659167367322047],[74.66877527366253,13.661695669831706],[74.66911420715648,13.663751372949937],[74.66999709268556,13.663751379154824],[74.67205720066126,13.665833782214209],[74.6712189029364,13.669164716938925],[74.6728598507818,13.671693031724375],[74.6728598507818,13.67416783089995],[74.67375165002969,13.674943704756151],[74.6728598507818,13.678279064740469],[74.67413961652892,13.679554439389436],[74.67580286881571,13.679554411914326],[74.67791641476295,13.68169473763266],[74.68036000200854,13.679166447194694],[74.68039126683425,13.673307213990416],[74.68160862534502,13.672027441968664],[74.68250484503581,13.67202740557583],[74.68250484503581,13.667055520996135],[74.68081039359922,13.667055518118499],[74.67957971942336,13.66583373862211],[74.67957971942336,13.656639078213873],[74.6816398006135,13.65625117815521],[74.68252717677277,13.657053811289305],[74.68499749538141,13.657053805453703],[74.68622375336876,13.655858775169397],[74.68328073718274,13.655390549992838],[74.68041797592365,13.653334908956305],[74.67952621164828,13.649999473503597],[74.68083272555896,13.648724151593164],[74.68330306881765,13.648724174963668],[74.68580463996578,13.650387392437116],[74.68833288208873,13.650387404948324],[74.68910883691744,13.651194569184865],[74.69496808788422,13.65122127932925],[74.69830345710933,13.653749570040397],[74.69872262893497,13.651609210577856],[74.70161661006853,13.650414202585775],[74.7024995051771,13.648692998302156],[74.70372126006845,13.64830504403747],[74.70414041847965,13.647083213684958],[74.70913906820205,13.64458165604026],[74.7158366895233,13.642918474418853],[74.71663484551095,13.642053389032155],[74.72000140218803,13.641250737228717],[74.7212232091666,13.640002178904256],[74.72205259681667,13.63833445124176],[74.72205259681667,13.633331386448486],[74.72083079584372,13.632863185706695],[74.71994790718433,13.633723734444095],[74.71494484376151,13.634584355206599],[74.71167187415104,13.637054750907584],[74.70666427856223,13.637112720118655],[74.7061916270447,13.634972296589371],[74.70708342968167,13.6341651987357],[74.70708342968167,13.63249749386911],[74.70622279779204,13.631636876483574],[74.70622279779204,13.628305944396134],[74.70500106096331,13.627052939539112],[74.70246824442741,13.627918013427545],[74.70083624664315,13.626250277478261],[74.69952970818156,13.626638256330804],[74.69952970818156,13.627498826649477],[74.70375252058668,13.632497546875362],[74.70455957585256,13.635779369646094],[74.7024995051771,13.63711264881722],[74.69916403995121,13.635418239813719],[74.69664024668019,13.637888533689797],[74.68914001080843,13.637081473398895],[74.68836414544617,13.637888601400837],[74.68583581446381,13.637942098028981],[74.68081039359922,13.633750515509588],[74.67913825744276,13.633750480798657],[74.6770870789028,13.631610196363178],[74.67539257343968,13.627472118296524],[74.67541490611136,13.622473476144568],[74.67663667744347,13.622085500994224],[74.67747503779091,13.62374872708314],[74.67957971942336,13.623276114859621],[74.67710932202208,13.620805786006581],[74.67710932202208,13.62002541346361],[74.67833563696192,13.618692116076486],[74.67996767262086,13.61869212339883],[74.6808103935992,13.620417803681189],[74.68205445793824,13.61916479981594],[74.68205445793824,13.618304171084148],[74.68041797592365,13.61664095157495],[74.68041797592365,13.61416617739327],[74.68122067589502,13.613305506985382],[74.68122067589502,13.61083516795423],[74.67957971942336,13.60916752042169],[74.68041797592365,13.605778535933238],[74.67999884819051,13.605390632782433],[74.67830437175796,13.606220033084973],[74.67747503779091,13.605359389841407],[74.67705581346915,13.610835193215125],[74.67453195936919,13.616609769950974],[74.6712500801103,13.619998666186692],[74.6712189029364,13.622473487609868],[74.67375165002969,13.625804400939748],[74.67375165002969,13.62833273089568],[74.6712189029364,13.630000418237811],[74.67205720066126,13.632470795610873],[74.671410611199,13.63312179139785],[74.66766940241114,13.628948076010465],[74.6757404268008,13.586809547578056],[74.68011926265788,13.559100730873991],[74.68535872789431,13.514179692813427],[74.69035284043493,13.459988267697321],[74.6937462698468,13.456612756669085],[74.6937462698468,13.455805673211533],[74.69580635768368,13.453696494911572],[74.69705049069245,13.454164680547207],[74.69711283554791,13.460804265142748],[74.69791554584232,13.46161139391245],[74.69791554584232,13.465000277825714],[74.6961987397675,13.46833120583962],[74.69750083797221,13.469557474179533],[74.6995565035753,13.46747063403102],[74.69872262893497,13.464139652271065],[74.70038581891518,13.46249875926445],[74.70038581891518,13.459167778465524],[74.70124648049125,13.458307218697284],[74.70124648049125,13.456639496472423],[74.70202684202557,13.455832348418685],[74.70161661006853,13.453696498074143],[74.6999755829817,13.456220312387616],[74.69875380105785,13.455832370901692],[74.69875380105785,13.45330403836003],[74.69958320964685,13.452501411832372],[74.69875380105785,13.446637732024069],[74.70122415121963,13.443306749149588],[74.70375252058668,13.438303635723615],[74.70664195000552,13.437055098498972],[74.70913906820205,13.437055128223767],[74.71119468172903,13.439195443751544],[74.71167187415104,13.442053798969487],[74.71250121940679,13.442053793216276],[74.71414221427372,13.440390496094714],[74.71499834035046,13.440390501901831],[74.71705843733757,13.442472880947543],[74.71705843733757,13.445803876760102],[74.71453008833015,13.449999916567513],[74.71541747080227,13.453304086606739],[74.71747756267628,13.454583836022376],[74.71958228311574,13.452474706561823],[74.71958228311576,13.445803894755544],[74.71788784545413,13.44247294612187],[74.71872171488836,13.439137556946573],[74.71624688697908,13.437474263323892],[74.71414221427372,13.433750902904682],[74.71080680001599,13.433724207357232],[74.70833641114011,13.435387421350244],[74.70417167892046,13.435387447287964],[74.70288740594212,13.4333317467068],[74.70288740594212,13.428333144465977],[74.70205801354014,13.427472493353607],[74.70205801354014,13.425002133099781],[74.70288740594212,13.423334488224246],[74.70500106096331,13.422081421781506],[74.71122147527522,13.415807509105932],[74.71122147527522,13.412498822849628],[74.7074758749405,13.40955583414671],[74.7024995051771,13.408748726905552],[74.70038581891518,13.410804415898337],[74.70038581891518,13.411664954780393],[74.69833462930937,13.412886825374796],[74.69630127880104,13.414920103474856],[74.69726003362565,13.407098908631593],[74.6958108236811,13.379118036787467],[74.69787981830356,13.353268578680382],[74.69622106970168,13.348613330678623],[74.69622106970168,13.348332403115402],[74.69999791241798,13.345416167511324],[74.70122415121963,13.345804035611566],[74.70038581891518,13.349139444343354],[74.7016388499715,13.349612153620988],[74.70375252058668,13.344140865517653],[74.7074446151103,13.340359535920419],[74.70913906820205,13.3403594870613],[74.71080680001599,13.342085139211962],[74.71208208171981,13.341639240879847],[74.71038765812675,13.33997157132486],[74.7112794386323,13.338303855594331],[74.71038765812675,13.336640625008956],[74.71372299134714,13.334972875696565],[74.71167187415104,13.332917254339883],[74.70664195000552,13.33874979629082],[74.70458190468412,13.33997155599061],[74.70458190468412,13.34083220922966],[74.70083624664315,13.343748387459103],[74.69746957629968,13.34541609078159],[74.69583315366641,13.345416160142774],[74.69565924766299,13.344533253311484],[74.70430091845299,13.339128772089769],[74.71134186755707,13.32939907826359],[74.71478873007958,13.319812000987676],[74.71930141113283,13.299340259334631],[74.72096904260778,13.284799116817709],[74.72705125223784,13.268621488097196],[74.73104217562071,13.25276043142483],[74.73424824119871,13.233630890921653],[74.73803852101528,13.221528953117303],[74.74391116523651,13.197030628641727],[74.754118019448,13.16546912153885],[74.76031170912101,13.139129232643446],[74.81738824656773,13.162980923912688],[74.84724188021684,13.174249088135383],[74.86807924502901,13.175381707764172],[74.91370922061851,13.150589088451945],[74.93512181657573,13.152849830537056],[74.94750922356357,13.160171693843461],[74.95627137230298,13.170610487429329],[74.968351035977,13.173120945783728],[74.97792027849748,13.169740886875932],[74.99087843513566,13.156229861713221],[74.99877110498326,13.15848165828518],[75.00777840857694,13.15820073597633],[75.0139810846227,13.160729122838685],[75.01764199193147,13.168340802564625],[75.02693028082624,13.176219990131843],[75.03425213491599,13.17593911187005],[75.04354935592963,13.166931653420704],[75.06015948736795,13.167208179528895],[75.07960121306333,13.161580748568598],[75.09255044172698,13.159890788973648],[75.09198855008707,13.173120902179415],[75.09453023406422,13.175939095893336],[75.10495120300992,13.171430914729239],[75.1179004128618,13.182418179667645],[75.1328294802919,13.169459971156165],[75.14042776875955,13.153130750778887],[75.15422869389073,13.149179996584298],[75.16774866604378,13.140538240311052],[75.16971958946738,13.14457820326611],[75.17903024255216,13.150968151856663],[75.18307909002246,13.161982082685878],[75.19190809092775,13.166169140903868],[75.20005933131189,13.173789797624968],[75.20067916080882,13.17964014526177],[75.17697901812194,13.202880927291963],[75.16963934584736,13.200941280719846],[75.16764170288536,13.230242019390126],[75.1524183483713,13.27004842466566],[75.1393888581625,13.291041886951003],[75.13079163939022,13.287648430478827],[75.12499038347308,13.288700827497347],[75.11597855416866,13.285641911719685],[75.10632908474456,13.296522091378808],[75.09523922521127,13.320971333679955],[75.08097013628253,13.34563020141557]]]]}}
